{"type":"FeatureCollection","features":[{"type":"Feature","properties":{"t":"river","kind":"river"},"geometry":{"type":"MultiPolygon","coordinates":[[[[-114.08997,53.35021],[-114.09383,53.3495],[-114.10026,53.34727],[-114.10395,53.34668],[-114.11033,53.34605],[-114.12674,53.34584],[-114.13508,53.34732],[-114.14459,53.34849],[-114.153,53.35113],[-114.15839,53.35344],[-114.15708,53.35366],[-114.1602,53.35445],[-114.17039,53.35459],[-114.18412,53.35601],[-114.18134,53.35596],[-114.18521,53.35686],[-114.18599,53.3564],[-114.19078,53.35651],[-114.19579,53.35752],[-114.19983,53.35788],[-114.20655,53.35811],[-114.21917,53.35776],[-114.22306,53.35837],[-114.22935,53.36012],[-114.23813,53.36319],[-114.2438,53.36722],[-114.25433,53.37175],[-114.25704,53.37183],[-114.25888,53.37137],[-114.26014,53.37056],[-114.26219,53.37044],[-114.26775,53.37079],[-114.27173,53.37053],[-114.27735,53.37145],[-114.27993,53.3727],[-114.28065,53.37361],[-114.28087,53.37808],[-114.27962,53.38337],[-114.28028,53.38513],[-114.28217,53.38661],[-114.2865,53.38893],[-114.29051,53.39004],[-114.29328,53.39133],[-114.29711,53.39405],[-114.30077,53.3958],[-114.30127,53.39662],[-114.30076,53.39937],[-114.30015,53.39982],[-114.30063,53.39861],[-114.29955,53.3989],[-114.29606,53.40114],[-114.2937,53.40402],[-114.2889,53.41721],[-114.28727,53.41886],[-114.28207,53.42217],[-114.27603,53.42472],[-114.27469,53.42568],[-114.27444,53.42768],[-114.27601,53.42855],[-114.27775,53.4287],[-114.2803,53.42825],[-114.28607,53.42517],[-114.29036,53.42397],[-114.29381,53.42394],[-114.29642,53.42318],[-114.29565,53.42202],[-114.29254,53.41992],[-114.29205,53.4179],[-114.29286,53.41641],[-114.29572,53.41448],[-114.29609,53.41151],[-114.29729,53.41017],[-114.29902,53.40997],[-114.30099,53.41092],[-114.30101,53.41246],[-114.302,53.41384],[-114.30667,53.41411],[-114.30858,53.41337],[-114.31159,53.41073],[-114.31358,53.40974],[-114.3182,53.40892],[-114.31925,53.40905],[-114.32106,53.40995],[-114.32222,53.4114],[-114.3211,53.4133],[-114.32173,53.41502],[-114.32776,53.41898],[-114.33244,53.42069],[-114.33891,53.42231],[-114.34598,53.42301],[-114.34606,53.42338],[-114.34465,53.42326],[-114.34565,53.4237],[-114.34414,53.42368],[-114.34696,53.42466],[-114.3534,53.42182],[-114.36489,53.42104],[-114.3676,53.42182],[-114.36831,53.42259],[-114.36832,53.42361],[-114.36783,53.42401],[-114.36919,53.42417],[-114.3715,53.42357],[-114.37281,53.42234],[-114.37376,53.41979],[-114.37287,53.41602],[-114.37324,53.41583],[-114.37416,53.41744],[-114.37388,53.4153],[-114.37271,53.41356],[-114.37016,53.41146],[-114.36943,53.41154],[-114.36724,53.41049],[-114.36516,53.41012],[-114.35974,53.40646],[-114.35807,53.40316],[-114.35794,53.40095],[-114.35856,53.40012],[-114.36469,53.39798],[-114.36967,53.3978],[-114.37221,53.39865],[-114.37377,53.39969],[-114.37458,53.40062],[-114.37537,53.40328],[-114.37825,53.40495],[-114.38185,53.40511],[-114.3861,53.40226],[-114.38432,53.40455],[-114.38263,53.40539],[-114.38575,53.40593],[-114.38965,53.39895],[-114.38976,53.39776],[-114.38751,53.39637],[-114.38227,53.39486],[-114.37941,53.39257],[-114.37655,53.39132],[-114.37566,53.39029],[-114.37644,53.38744],[-114.37825,53.38652],[-114.38356,53.38512],[-114.38663,53.3832],[-114.3897,53.38211],[-114.39337,53.3825],[-114.39726,53.38468],[-114.39913,53.38521],[-114.40265,53.38419],[-114.40419,53.38223],[-114.40578,53.37777],[-114.41182,53.37178],[-114.41063,53.37428],[-114.41329,53.37365],[-114.41474,53.37214],[-114.415,53.371],[-114.41866,53.36917],[-114.42225,53.36625],[-114.4216,53.36491],[-114.41917,53.36364],[-114.40911,53.36355],[-114.40724,53.36307],[-114.39814,53.36239],[-114.39639,53.36197],[-114.39508,53.36084],[-114.3943,53.35864],[-114.39466,53.35641],[-114.39786,53.35101],[-114.39977,53.34922],[-114.40848,53.34516],[-114.41454,53.34406],[-114.41598,53.34425],[-114.41719,53.34506],[-114.41868,53.34521],[-114.42381,53.34331],[-114.4274,53.34442],[-114.43017,53.34225],[-114.43167,53.34188],[-114.43501,53.34201],[-114.4377,53.34353],[-114.43744,53.34461],[-114.43572,53.34614],[-114.43565,53.34674],[-114.43692,53.34728],[-114.43925,53.34723],[-114.44813,53.34389],[-114.45481,53.34378],[-114.45632,53.34418],[-114.45922,53.34413],[-114.46202,53.34227],[-114.46591,53.34046],[-114.46924,53.34138],[-114.46863,53.3416],[-114.46908,53.34169],[-114.47884,53.34155],[-114.48021,53.34034],[-114.4784,53.33694],[-114.47826,53.33494],[-114.47974,53.33285],[-114.48391,53.33106],[-114.48694,53.33031],[-114.48715,53.33073],[-114.48639,53.33089],[-114.48673,53.33106],[-114.48923,53.3306],[-114.4915,53.32711],[-114.49176,53.32695],[-114.49103,53.32891],[-114.49541,53.3255],[-114.49638,53.32408],[-114.49629,53.32498],[-114.49817,53.32254],[-114.49819,53.32357],[-114.49875,53.32355],[-114.49916,53.32029],[-114.50437,53.31591],[-114.50875,53.31289],[-114.50741,53.31486],[-114.50905,53.31437],[-114.51167,53.31121],[-114.51353,53.31034],[-114.52465,53.30927],[-114.53018,53.30942],[-114.5312,53.30959],[-114.53161,53.31023],[-114.53431,53.31033],[-114.53655,53.31089],[-114.53779,53.3122],[-114.53949,53.31305],[-114.54397,53.31359],[-114.54731,53.31341],[-114.54894,53.31378],[-114.54399,53.31413],[-114.54867,53.31486],[-114.55679,53.31353],[-114.56062,53.31211],[-114.56691,53.31056],[-114.57019,53.31353],[-114.56937,53.31339],[-114.56638,53.31116],[-114.56195,53.31261],[-114.56718,53.31883],[-114.56871,53.31996],[-114.57064,53.32075],[-114.57101,53.32067],[-114.56911,53.3197],[-114.57134,53.31946],[-114.57199,53.32067],[-114.57307,53.3212],[-114.57931,53.32146],[-114.58226,53.32046],[-114.58397,53.31884],[-114.58956,53.31619],[-114.59629,53.31467],[-114.60093,53.31288],[-114.60132,53.3123],[-114.60693,53.30918],[-114.61079,53.30836],[-114.6192,53.30775],[-114.62322,53.30891],[-114.62321,53.31092],[-114.62114,53.31007],[-114.61615,53.30906],[-114.61369,53.30901],[-114.61267,53.30932],[-114.61235,53.30907],[-114.6074,53.30966],[-114.60256,53.31293],[-114.598,53.31515],[-114.60424,53.31639],[-114.6029,53.3165],[-114.60376,53.31684],[-114.60543,53.31697],[-114.60699,53.31664],[-114.60804,53.31682],[-114.60782,53.3173],[-114.61009,53.3173],[-114.61291,53.31598],[-114.61314,53.31346],[-114.61356,53.3142],[-114.61326,53.31621],[-114.6109,53.31759],[-114.6065,53.31783],[-114.5979,53.31576],[-114.59433,53.31598],[-114.58966,53.31741],[-114.58869,53.31797],[-114.58981,53.31776],[-114.58223,53.3216],[-114.57854,53.32271],[-114.57911,53.32313],[-114.56937,53.32198],[-114.56946,53.32158],[-114.56574,53.3191],[-114.56764,53.32141],[-114.56513,53.31952],[-114.56312,53.31562],[-114.56197,53.31465],[-114.56035,53.31406],[-114.55856,53.31381],[-114.55658,53.31432],[-114.55698,53.31471],[-114.5559,53.31498],[-114.54596,53.31586],[-114.53442,53.31431],[-114.53256,53.31373],[-114.53068,53.31376],[-114.53077,53.31435],[-114.52564,53.31376],[-114.52226,53.31249],[-114.52015,53.31075],[-114.51886,53.31074],[-114.51765,53.31117],[-114.51728,53.31201],[-114.51167,53.31345],[-114.50932,53.31519],[-114.51153,53.31549],[-114.51321,53.31634],[-114.51637,53.31662],[-114.51281,53.31664],[-114.50985,53.31577],[-114.50887,53.31637],[-114.51157,53.31693],[-114.50832,53.31657],[-114.50665,53.31688],[-114.5035,53.31942],[-114.50024,53.32384],[-114.49644,53.3265],[-114.49687,53.32673],[-114.49492,53.32949],[-114.49157,53.33222],[-114.48977,53.33656],[-114.48906,53.33706],[-114.4873,53.33679],[-114.48789,53.33775],[-114.4874,53.33949],[-114.48502,53.34071],[-114.48149,53.34116],[-114.47727,53.34268],[-114.46882,53.34373],[-114.46437,53.34357],[-114.46427,53.3439],[-114.45953,53.34533],[-114.45816,53.34636],[-114.45801,53.34738],[-114.45883,53.34821],[-114.46022,53.34866],[-114.46015,53.34938],[-114.45813,53.35157],[-114.45582,53.35319],[-114.4564,53.35402],[-114.45203,53.3541],[-114.44863,53.35347],[-114.44658,53.35198],[-114.44343,53.35254],[-114.44299,53.35296],[-114.44405,53.35275],[-114.44247,53.35369],[-114.43666,53.35461],[-114.43289,53.3547],[-114.42961,53.35443],[-114.41953,53.35199],[-114.42046,53.35265],[-114.41926,53.35239],[-114.41967,53.35391],[-114.42066,53.35497],[-114.42181,53.3554],[-114.42594,53.35527],[-114.42166,53.35555],[-114.41962,53.35451],[-114.4188,53.35238],[-114.41752,53.35146],[-114.41408,53.35014],[-114.4115,53.35],[-114.40989,53.34919],[-114.40832,53.34922],[-114.40728,53.35012],[-114.4085,53.3512],[-114.40688,53.3524],[-114.40607,53.35249],[-114.40601,53.35326],[-114.40761,53.35419],[-114.40917,53.35406],[-114.41393,53.35561],[-114.41436,53.35709],[-114.41373,53.35732],[-114.41547,53.35821],[-114.41611,53.36037],[-114.41742,53.36142],[-114.4187,53.36159],[-114.42019,53.36236],[-114.42322,53.36448],[-114.42378,53.3655],[-114.42348,53.36663],[-114.41478,53.37411],[-114.40811,53.37709],[-114.4067,53.37982],[-114.40744,53.3794],[-114.40842,53.38113],[-114.40267,53.38584],[-114.39985,53.38656],[-114.39679,53.38622],[-114.39166,53.38372],[-114.38939,53.38321],[-114.3864,53.38468],[-114.38373,53.38689],[-114.38208,53.39058],[-114.38245,53.39264],[-114.38416,53.39381],[-114.39174,53.39586],[-114.39078,53.39995],[-114.38871,53.40318],[-114.38808,53.40571],[-114.38716,53.40651],[-114.3842,53.40733],[-114.38118,53.40748],[-114.37562,53.40607],[-114.3737,53.40484],[-114.37114,53.39998],[-114.36915,53.39898],[-114.36608,53.39909],[-114.36336,53.40061],[-114.36321,53.40124],[-114.3651,53.40304],[-114.36592,53.40446],[-114.36525,53.40634],[-114.37539,53.41332],[-114.37713,53.4191],[-114.37591,53.42206],[-114.37448,53.42353],[-114.37483,53.42391],[-114.37357,53.4242],[-114.37394,53.42464],[-114.37303,53.4244],[-114.37054,53.42506],[-114.36666,53.42529],[-114.36511,53.42504],[-114.35798,53.42244],[-114.35392,53.4229],[-114.35099,53.42432],[-114.35288,53.42376],[-114.35337,53.42385],[-114.35214,53.42417],[-114.35227,53.42481],[-114.35151,53.42592],[-114.3523,53.42927],[-114.35086,53.43113],[-114.3491,53.43184],[-114.33545,53.43113],[-114.33813,53.43279],[-114.3403,53.43191],[-114.33851,53.43306],[-114.33687,53.4327],[-114.33499,53.43147],[-114.33177,53.43026],[-114.32937,53.42853],[-114.32909,53.42733],[-114.3297,53.42653],[-114.33428,53.42455],[-114.33538,53.42366],[-114.33471,53.42277],[-114.33191,53.42212],[-114.33089,53.42331],[-114.32493,53.42179],[-114.31996,53.42196],[-114.31931,53.4225],[-114.31932,53.42441],[-114.31713,53.42791],[-114.31563,53.42869],[-114.31477,53.42977],[-114.31217,53.43018],[-114.31134,53.43064],[-114.30962,53.43013],[-114.3057,53.42669],[-114.30155,53.42584],[-114.29795,53.42462],[-114.28645,53.42597],[-114.28332,53.42878],[-114.28561,53.42823],[-114.28367,53.42924],[-114.28239,53.42944],[-114.27625,53.42969],[-114.27441,53.42921],[-114.27263,53.42817],[-114.27198,53.42696],[-114.2725,53.42514],[-114.2803,53.42088],[-114.28342,53.41739],[-114.28633,53.41517],[-114.29109,53.40568],[-114.28809,53.40892],[-114.28827,53.40807],[-114.29111,53.4035],[-114.29247,53.40171],[-114.29815,53.3978],[-114.29847,53.39702],[-114.29838,53.39629],[-114.29811,53.39683],[-114.29718,53.3955],[-114.29248,53.39308],[-114.28207,53.39047],[-114.28095,53.38964],[-114.28036,53.38764],[-114.27799,53.38573],[-114.27762,53.38457],[-114.27846,53.37388],[-114.27738,53.37271],[-114.27607,53.37219],[-114.27153,53.37164],[-114.26404,53.37236],[-114.25855,53.3735],[-114.25666,53.37331],[-114.25296,53.37261],[-114.24145,53.36826],[-114.23983,53.36675],[-114.23587,53.36429],[-114.22617,53.36087],[-114.2276,53.36159],[-114.22392,53.36081],[-114.20964,53.36061],[-114.20607,53.35953],[-114.20294,53.3592],[-114.19771,53.35898],[-114.19126,53.35929],[-114.19196,53.35969],[-114.20244,53.36134],[-114.19388,53.36068],[-114.18837,53.35942],[-114.18403,53.35898],[-114.17334,53.35691],[-114.17263,53.35624],[-114.17126,53.35592],[-114.167,53.35588],[-114.16415,53.35641],[-114.16068,53.35588],[-114.13859,53.34918],[-114.12734,53.34848],[-114.12248,53.34912],[-114.11512,53.34904],[-114.10925,53.34972],[-114.10294,53.34919],[-114.10217,53.34934],[-114.10213,53.34965],[-114.1027,53.34955],[-114.10175,53.34996],[-114.0926,53.35107],[-114.08934,53.35172],[-114.08368,53.35362],[-114.07991,53.35414],[-114.07445,53.35387],[-114.06939,53.35216],[-114.06015,53.34998],[-114.06215,53.3512],[-114.0609,53.3513],[-114.05646,53.34623],[-114.05445,53.34263],[-114.05346,53.33586],[-114.05222,53.33429],[-114.04442,53.32874],[-114.04379,53.32863],[-114.04622,53.33147],[-114.04304,53.32881],[-114.04055,53.32748],[-114.03551,53.32576],[-114.03088,53.32487],[-114.02898,53.32489],[-114.02599,53.32553],[-114.01712,53.3299],[-114.01132,53.32929],[-114.00567,53.32794],[-114.00029,53.32734],[-113.99143,53.32831],[-113.98722,53.32917],[-113.98506,53.33068],[-113.98349,53.33292],[-113.98187,53.34009],[-113.98014,53.34125],[-113.97572,53.34249],[-113.97064,53.34263],[-113.96349,53.34196],[-113.95515,53.3424],[-113.94577,53.3416],[-113.9303,53.33843],[-113.92472,53.33795],[-113.92183,53.33809],[-113.89784,53.34374],[-113.8796,53.34397],[-113.87488,53.34457],[-113.8726,53.34552],[-113.86855,53.34881],[-113.86214,53.35204],[-113.85402,53.35478],[-113.84615,53.35854],[-113.84439,53.36071],[-113.84055,53.36154],[-113.83258,53.3625],[-113.82977,53.36359],[-113.82707,53.36401],[-113.81695,53.36342],[-113.81422,53.36247],[-113.81334,53.36178],[-113.81138,53.36155],[-113.80697,53.3599],[-113.80191,53.35738],[-113.79517,53.35671],[-113.79186,53.35753],[-113.79057,53.35825],[-113.79008,53.35915],[-113.79255,53.35789],[-113.78991,53.35979],[-113.78767,53.36419],[-113.78656,53.3656],[-113.78244,53.36664],[-113.77975,53.36659],[-113.77696,53.36597],[-113.77581,53.36519],[-113.77315,53.36141],[-113.77061,53.359],[-113.76744,53.35793],[-113.76474,53.35818],[-113.7613,53.35925],[-113.75887,53.36093],[-113.75324,53.37001],[-113.75131,53.372],[-113.74842,53.37306],[-113.74578,53.37308],[-113.74183,53.37243],[-113.73579,53.37257],[-113.72895,53.37138],[-113.71981,53.37166],[-113.71103,53.37277],[-113.7088,53.37262],[-113.70578,53.37126],[-113.70355,53.36845],[-113.70396,53.36316],[-113.70338,53.36182],[-113.70013,53.36003],[-113.69815,53.35846],[-113.69764,53.35748],[-113.69566,53.35628],[-113.69401,53.35627],[-113.69251,53.35704],[-113.68966,53.35757],[-113.68761,53.35913],[-113.68653,53.36228],[-113.6865,53.36421],[-113.68866,53.36766],[-113.69372,53.3715],[-113.69437,53.37396],[-113.69263,53.38063],[-113.69017,53.3829],[-113.68589,53.38494],[-113.68206,53.38539],[-113.66426,53.38232],[-113.6581,53.38217],[-113.6523,53.38447],[-113.6491,53.38793],[-113.64716,53.39125],[-113.64613,53.3967],[-113.64841,53.40206],[-113.65158,53.40625],[-113.65518,53.4088],[-113.65702,53.41139],[-113.65763,53.41561],[-113.65923,53.41981],[-113.65889,53.42271],[-113.65933,53.42626],[-113.66017,53.42687],[-113.66087,53.42554],[-113.65976,53.43015],[-113.65871,53.43118],[-113.65697,53.43198],[-113.64965,53.43407],[-113.64353,53.43749],[-113.64142,53.43998],[-113.63984,53.44007],[-113.64005,53.44077],[-113.63875,53.44291],[-113.63866,53.44409],[-113.63702,53.44595],[-113.63919,53.44487],[-113.64035,53.44266],[-113.63923,53.44548],[-113.6286,53.45118],[-113.62393,53.45558],[-113.62061,53.45727],[-113.61727,53.45985],[-113.60906,53.46466],[-113.60766,53.46579],[-113.60662,53.46751],[-113.6065,53.46991],[-113.60878,53.47257],[-113.61282,53.47405],[-113.62227,53.47638],[-113.62588,53.47837],[-113.62761,53.48052],[-113.62877,53.48366],[-113.62869,53.48535],[-113.62764,53.48692],[-113.62482,53.48875],[-113.62262,53.4895],[-113.61889,53.49003],[-113.61577,53.48978],[-113.612,53.48896],[-113.60877,53.48767],[-113.6031,53.484],[-113.59921,53.48231],[-113.59556,53.48164],[-113.59218,53.48207],[-113.59036,53.48299],[-113.5895,53.48421],[-113.58904,53.48691],[-113.58933,53.48909],[-113.5921,53.49559],[-113.59211,53.49891],[-113.59052,53.50093],[-113.58852,53.5024],[-113.58215,53.50481],[-113.57504,53.50669],[-113.56107,53.50794],[-113.55394,53.50816],[-113.54999,53.50904],[-113.54611,53.51076],[-113.54427,53.51238],[-113.54319,53.51461],[-113.54387,53.51892],[-113.547,53.52175],[-113.55462,53.52492],[-113.55786,53.52815],[-113.55896,53.53045],[-113.55866,53.53311],[-113.55692,53.53582],[-113.55461,53.53726],[-113.55237,53.53793],[-113.54571,53.53902],[-113.54131,53.53873],[-113.52639,53.53301],[-113.51906,53.53182],[-113.51052,53.53148],[-113.50266,53.52973],[-113.49938,53.52835],[-113.49493,53.52741],[-113.4926,53.52803],[-113.49098,53.52942],[-113.49012,53.53118],[-113.48949,53.53585],[-113.48799,53.53824],[-113.48632,53.53934],[-113.48281,53.54028],[-113.4779,53.54077],[-113.47262,53.54086],[-113.46658,53.54033],[-113.46364,53.54115],[-113.46319,53.54195],[-113.46362,53.5442],[-113.46974,53.55145],[-113.46967,53.55237],[-113.46792,53.55442],[-113.46394,53.55578],[-113.45895,53.55623],[-113.44599,53.55536],[-113.44148,53.5557],[-113.43463,53.55796],[-113.43041,53.56068],[-113.42612,53.56275],[-113.42171,53.5639],[-113.41494,53.56412],[-113.4112,53.56353],[-113.40483,53.56132],[-113.39265,53.55252],[-113.38931,53.55188],[-113.38521,53.55265],[-113.38308,53.55387],[-113.38164,53.55566],[-113.38132,53.55858],[-113.38032,53.55871],[-113.37949,53.56569],[-113.37871,53.56617],[-113.37832,53.56755],[-113.3703,53.57618],[-113.36858,53.57973],[-113.3682,53.58295],[-113.3687,53.58591],[-113.37287,53.59111],[-113.37342,53.59638],[-113.37144,53.60102],[-113.36952,53.60358],[-113.36668,53.60571],[-113.36154,53.60798],[-113.35535,53.60923],[-113.34721,53.60898],[-113.33071,53.60546],[-113.31923,53.60371],[-113.31348,53.60358],[-113.31042,53.60405],[-113.3072,53.60509],[-113.30361,53.60704],[-113.3008,53.6095],[-113.29853,53.61297],[-113.29806,53.61557],[-113.29898,53.6175],[-113.30149,53.61947],[-113.3043,53.62076],[-113.31034,53.62303],[-113.31767,53.6246],[-113.32167,53.62647],[-113.32431,53.62912],[-113.32536,53.63279],[-113.32278,53.63653],[-113.31766,53.6391],[-113.3098,53.64074],[-113.29864,53.64061],[-113.29488,53.64121],[-113.29167,53.64214],[-113.28981,53.64365],[-113.2883,53.64699],[-113.28738,53.65228],[-113.28759,53.65482],[-113.28513,53.6594],[-113.28173,53.66327],[-113.2745,53.66806],[-113.2738,53.66968],[-113.27589,53.67165],[-113.27797,53.67209],[-113.28467,53.67067],[-113.2858,53.67092],[-113.29148,53.67042],[-113.2939,53.67107],[-113.29497,53.67177],[-113.29526,53.67341],[-113.29269,53.67771],[-113.28393,53.68528],[-113.2747,53.68809],[-113.26305,53.69417],[-113.24807,53.69923],[-113.22965,53.71124],[-113.22062,53.71535],[-113.21763,53.71791],[-113.21586,53.7188],[-113.21308,53.72546],[-113.21118,53.72826],[-113.21132,53.73057],[-113.20992,53.7317],[-113.2031,53.73452],[-113.19897,53.73579],[-113.19289,53.73993],[-113.18727,53.74469],[-113.18143,53.74721],[-113.17483,53.7516],[-113.17212,53.75647],[-113.17178,53.75913],[-113.17247,53.76449],[-113.17052,53.76782],[-113.16307,53.77187],[-113.15706,53.7762],[-113.15351,53.77766],[-113.14822,53.78059],[-113.14162,53.78343],[-113.13558,53.7855],[-113.12959,53.79054],[-113.12551,53.79758],[-113.12221,53.80181],[-113.11895,53.80492],[-113.11618,53.8093],[-113.11474,53.81316],[-113.11493,53.81799],[-113.11542,53.81796],[-113.11391,53.82119],[-113.11094,53.82328],[-113.10766,53.82464],[-113.09829,53.82655],[-113.09283,53.82823],[-113.09041,53.82956],[-113.08519,53.83399],[-113.08311,53.83667],[-113.08081,53.8445],[-113.07714,53.85238],[-113.07113,53.86221],[-113.06858,53.8648],[-113.0636,53.86758],[-113.055,53.87006],[-113.04917,53.87081],[-113.04482,53.87075],[-113.04033,53.87122],[-113.03588,53.87107],[-113.03357,53.8719],[-113.02157,53.87448],[-113.01754,53.87441],[-113.00061,53.8786],[-112.98614,53.8833],[-112.97253,53.88974],[-112.96857,53.89119],[-112.96374,53.89505],[-112.95782,53.89766],[-112.95238,53.89923],[-112.95001,53.9009],[-112.94696,53.90173],[-112.9403,53.9025],[-112.93572,53.90376],[-112.92341,53.91023],[-112.91655,53.91327],[-112.90849,53.9179],[-112.90217,53.92075],[-112.8972,53.92451],[-112.88992,53.92878],[-112.87328,53.93607],[-112.86238,53.94448],[-112.85051,53.95879],[-112.84715,53.96638],[-112.84878,53.97543],[-112.84795,53.97932],[-112.848,53.98433],[-112.84862,53.98836],[-112.84828,53.99057],[-112.84968,53.9933],[-112.84886,54.00256],[-112.85002,54.01366],[-112.85313,54.01125],[-112.8499,54.01452],[-112.8492,54.01643],[-112.85005,54.0226],[-112.84902,54.03109],[-112.84326,54.0366],[-112.83191,54.04092],[-112.82625,54.04397],[-112.82046,54.04893],[-112.81817,54.05189],[-112.81444,54.05452],[-112.81234,54.05705],[-112.80713,54.06176],[-112.80463,54.06294],[-112.79659,54.06473],[-112.78963,54.06467],[-112.78439,54.06271],[-112.78065,54.05993],[-112.77435,54.05811],[-112.76362,54.05663],[-112.75602,54.0547],[-112.74336,54.05377],[-112.73905,54.05308],[-112.73766,54.05251],[-112.73426,54.05234],[-112.72685,54.05069],[-112.71834,54.05005],[-112.71698,54.04949],[-112.71331,54.04913],[-112.71105,54.04818],[-112.7079,54.04756],[-112.70195,54.04485],[-112.70147,54.04427],[-112.69546,54.04146],[-112.69037,54.0378],[-112.68731,54.03661],[-112.68162,54.03539],[-112.67334,54.03485],[-112.67098,54.03408],[-112.66987,54.03317],[-112.67003,54.03361],[-112.66948,54.03349],[-112.66472,54.03064],[-112.66359,54.02968],[-112.66415,54.0298],[-112.66276,54.02932],[-112.66124,54.02793],[-112.65635,54.02558],[-112.65349,54.02362],[-112.64056,54.01912],[-112.63012,54.01322],[-112.6185,54.00798],[-112.61148,54.00648],[-112.59096,54.00406],[-112.58311,54.0037],[-112.58083,54.00326],[-112.57637,54.00349],[-112.57035,54.00229],[-112.5655,54.00083],[-112.56511,54.00035],[-112.55098,53.99852],[-112.5441,53.99816],[-112.53045,54.00063],[-112.52368,54.00009],[-112.51774,53.99855],[-112.51278,53.99648],[-112.51086,53.9948],[-112.50922,53.99144],[-112.50717,53.99017],[-112.50469,53.9896],[-112.50279,53.98963],[-112.49261,53.99134],[-112.48414,53.99141],[-112.48071,53.99184],[-112.46275,53.99159],[-112.44685,53.99269],[-112.43776,53.99205],[-112.42789,53.99327],[-112.42115,53.9934],[-112.4122,53.99558],[-112.40474,53.99866],[-112.40011,54.00251],[-112.39305,54.00725],[-112.3835,54.01737],[-112.38037,54.02245],[-112.37517,54.02823],[-112.37425,54.03138],[-112.36905,54.03315],[-112.36773,54.03301],[-112.36056,54.03383],[-112.35473,54.03519],[-112.3462,54.03785],[-112.34243,54.03839],[-112.33947,54.03831],[-112.33958,54.03666],[-112.34461,54.03645],[-112.35553,54.03337],[-112.36387,54.03158],[-112.36952,54.02943],[-112.37422,54.02578],[-112.37666,54.02307],[-112.3787,54.02011],[-112.38089,54.01541],[-112.38615,54.00978],[-112.38737,54.00944],[-112.38908,54.00739],[-112.39346,54.00367],[-112.40117,53.99859],[-112.40214,53.99747],[-112.40808,53.99496],[-112.41989,53.99199],[-112.42641,53.99183],[-112.43714,53.99051],[-112.45037,53.99101],[-112.45641,53.99072],[-112.47063,53.98921],[-112.47271,53.98941],[-112.47344,53.98972],[-112.47409,53.99012],[-112.47501,53.99016],[-112.48493,53.98957],[-112.48931,53.98975],[-112.50097,53.98849],[-112.50487,53.98852],[-112.50776,53.98895],[-112.51057,53.9902],[-112.51209,53.99176],[-112.51299,53.99438],[-112.51543,53.99617],[-112.52116,53.99823],[-112.52584,53.99907],[-112.53047,53.99907],[-112.53602,53.99852],[-112.54431,53.9969],[-112.54835,53.99698],[-112.56305,53.99866],[-112.57439,54.00172],[-112.5782,54.00179],[-112.58024,54.0023],[-112.585,54.00261],[-112.58903,54.00227],[-112.5918,54.00244],[-112.61074,54.00451],[-112.61853,54.00609],[-112.6328,54.012],[-112.64236,54.0169],[-112.65269,54.02094],[-112.65858,54.02382],[-112.66836,54.03021],[-112.67235,54.03205],[-112.67632,54.03307],[-112.68433,54.03413],[-112.68911,54.03515],[-112.7038,54.04368],[-112.71213,54.04689],[-112.71713,54.04815],[-112.72859,54.04928],[-112.73355,54.05052],[-112.73977,54.051],[-112.74519,54.05198],[-112.75845,54.05345],[-112.77695,54.05691],[-112.78219,54.05861],[-112.78663,54.06172],[-112.79026,54.06278],[-112.79574,54.06291],[-112.80337,54.06117],[-112.80751,54.05855],[-112.81317,54.05264],[-112.82305,54.04369],[-112.83255,54.03766],[-112.84011,54.03396],[-112.84383,54.03108],[-112.84497,54.02944],[-112.84582,54.02716],[-112.84648,54.02134],[-112.84535,54.01697],[-112.84663,54.0091],[-112.84575,54.00308],[-112.84632,53.99589],[-112.84481,53.99013],[-112.84475,53.98723],[-112.84314,53.98283],[-112.84433,53.97496],[-112.84359,53.96459],[-112.84526,53.96203],[-112.8457,53.95949],[-112.84671,53.95795],[-112.85675,53.94775],[-112.858,53.9454],[-112.86121,53.94184],[-112.87905,53.93],[-112.88405,53.92829],[-112.88915,53.92585],[-112.91537,53.91077],[-112.91991,53.90949],[-112.9258,53.90624],[-112.9326,53.90331],[-112.9344,53.90179],[-112.94382,53.8974],[-112.94562,53.89552],[-112.95182,53.89321],[-112.95543,53.89106],[-112.95935,53.88998],[-112.96725,53.88947],[-112.98682,53.88066],[-113.0017,53.87667],[-113.0077,53.87463],[-113.02659,53.87148],[-113.03548,53.86931],[-113.04864,53.86906],[-113.05368,53.86853],[-113.06162,53.86602],[-113.06604,53.86348],[-113.06988,53.85826],[-113.07029,53.85779],[-113.07065,53.85806],[-113.07129,53.85711],[-113.07884,53.84126],[-113.08045,53.83627],[-113.08238,53.8336],[-113.08869,53.82826],[-113.09342,53.82569],[-113.09547,53.82503],[-113.09395,53.82602],[-113.09464,53.82591],[-113.09857,53.82465],[-113.10524,53.82355],[-113.10845,53.82253],[-113.1118,53.82064],[-113.11251,53.81935],[-113.11301,53.81476],[-113.11237,53.81405],[-113.11193,53.81162],[-113.11328,53.80769],[-113.12527,53.79099],[-113.13327,53.78453],[-113.15353,53.77537],[-113.15861,53.77211],[-113.16721,53.76753],[-113.16886,53.7656],[-113.16956,53.76363],[-113.16914,53.75817],[-113.1698,53.75485],[-113.17151,53.75181],[-113.1744,53.7486],[-113.17569,53.7476],[-113.18424,53.74375],[-113.19338,53.73692],[-113.19744,53.73447],[-113.20036,53.72989],[-113.203,53.72828],[-113.20409,53.72702],[-113.2053,53.72636],[-113.20823,53.726],[-113.20973,53.72537],[-113.21095,53.72391],[-113.21406,53.71765],[-113.21608,53.71542],[-113.22829,53.70949],[-113.23214,53.70653],[-113.24434,53.69911],[-113.25161,53.69591],[-113.25769,53.69419],[-113.26339,53.69203],[-113.27035,53.68778],[-113.28211,53.6821],[-113.28634,53.68065],[-113.29052,53.67761],[-113.29261,53.67544],[-113.29356,53.67342],[-113.29288,53.67231],[-113.29037,53.67225],[-113.28199,53.67363],[-113.27711,53.67321],[-113.27569,53.67294],[-113.27368,53.67188],[-113.27169,53.66893],[-113.27183,53.66754],[-113.27539,53.66577],[-113.2803,53.66199],[-113.28334,53.65729],[-113.28481,53.65622],[-113.28523,53.65499],[-113.28425,53.65371],[-113.28535,53.64878],[-113.28513,53.647],[-113.28679,53.64388],[-113.28932,53.64171],[-113.2934,53.64005],[-113.29928,53.63918],[-113.31105,53.63886],[-113.31268,53.63851],[-113.31292,53.63793],[-113.31666,53.63733],[-113.32112,53.63519],[-113.32221,53.63408],[-113.32254,53.63274],[-113.32214,53.62985],[-113.32112,53.62851],[-113.31827,53.62648],[-113.31549,53.62555],[-113.30409,53.62312],[-113.29937,53.62133],[-113.29707,53.61951],[-113.29575,53.61643],[-113.29595,53.61281],[-113.29797,53.60934],[-113.30013,53.60727],[-113.30739,53.60328],[-113.31419,53.6017],[-113.32104,53.60218],[-113.33149,53.60353],[-113.33788,53.60495],[-113.33857,53.60569],[-113.34174,53.60647],[-113.35086,53.60745],[-113.3573,53.60707],[-113.36055,53.60603],[-113.36168,53.60601],[-113.36468,53.60454],[-113.36875,53.60016],[-113.37025,53.59724],[-113.37039,53.59486],[-113.36889,53.58967],[-113.36586,53.58383],[-113.36541,53.58062],[-113.36584,53.57823],[-113.36687,53.5762],[-113.36984,53.57423],[-113.3702,53.57368],[-113.36966,53.57294],[-113.37361,53.56936],[-113.37713,53.5649],[-113.37837,53.55811],[-113.3801,53.55399],[-113.38149,53.55269],[-113.38488,53.55129],[-113.38859,53.55078],[-113.39274,53.5509],[-113.39429,53.5513],[-113.39634,53.55235],[-113.40407,53.55857],[-113.40713,53.56041],[-113.41076,53.56197],[-113.4151,53.56258],[-113.41996,53.56234],[-113.42346,53.56166],[-113.42835,53.55973],[-113.43399,53.55657],[-113.43704,53.5558],[-113.43805,53.55497],[-113.44407,53.55373],[-113.44378,53.55425],[-113.4494,53.55466],[-113.45086,53.55458],[-113.45144,53.55415],[-113.44547,53.55354],[-113.44937,53.55343],[-113.45967,53.5549],[-113.46467,53.55445],[-113.46672,53.55365],[-113.46739,53.55196],[-113.46606,53.54917],[-113.46147,53.54452],[-113.46138,53.54133],[-113.46289,53.53977],[-113.46419,53.53897],[-113.46622,53.53863],[-113.47809,53.5397],[-113.4817,53.53961],[-113.48385,53.53899],[-113.48659,53.53673],[-113.48793,53.53169],[-113.48953,53.52865],[-113.493,53.5265],[-113.49561,53.52606],[-113.49825,53.52634],[-113.503,53.52812],[-113.50755,53.52933],[-113.5108,53.52968],[-113.51416,53.5295],[-113.52572,53.5309],[-113.53048,53.53215],[-113.54207,53.53681],[-113.54875,53.53721],[-113.55179,53.53671],[-113.55397,53.5357],[-113.55559,53.53408],[-113.55627,53.53234],[-113.55602,53.53008],[-113.55474,53.52817],[-113.55211,53.52624],[-113.54427,53.52244],[-113.54102,53.51897],[-113.5405,53.51714],[-113.54103,53.513],[-113.54363,53.50986],[-113.54697,53.50779],[-113.55234,53.50633],[-113.57455,53.50501],[-113.58086,53.50361],[-113.5871,53.50141],[-113.58917,53.49984],[-113.5897,53.49765],[-113.58687,53.49184],[-113.58621,53.48767],[-113.5876,53.48368],[-113.58958,53.48179],[-113.59181,53.48086],[-113.59341,53.48045],[-113.59751,53.48022],[-113.60132,53.48098],[-113.61063,53.48607],[-113.6171,53.48816],[-113.62163,53.48805],[-113.62546,53.48644],[-113.62647,53.4852],[-113.62671,53.48326],[-113.62446,53.47966],[-113.62071,53.47776],[-113.60941,53.47439],[-113.60814,53.47372],[-113.60586,53.47201],[-113.60479,53.47055],[-113.60433,53.4686],[-113.60468,53.46679],[-113.60626,53.46436],[-113.60792,53.46294],[-113.61634,53.45808],[-113.62198,53.45247],[-113.62517,53.45107],[-113.62981,53.44788],[-113.63362,53.44638],[-113.63345,53.44688],[-113.63484,53.44598],[-113.63765,53.44218],[-113.63956,53.43776],[-113.64664,53.43348],[-113.65185,53.43179],[-113.653,53.43077],[-113.65328,53.42929],[-113.65465,53.42789],[-113.65731,53.42633],[-113.65749,53.42296],[-113.65622,53.42186],[-113.65626,53.42157],[-113.65719,53.42222],[-113.65327,53.41178],[-113.64736,53.40644],[-113.64842,53.40696],[-113.64712,53.40574],[-113.64538,53.40143],[-113.64416,53.39796],[-113.64357,53.39302],[-113.64392,53.39121],[-113.64591,53.38815],[-113.65051,53.38379],[-113.65296,53.38232],[-113.65676,53.38109],[-113.66029,53.38047],[-113.66602,53.3801],[-113.67147,53.3817],[-113.67977,53.38351],[-113.68369,53.38336],[-113.68677,53.3824],[-113.69071,53.3783],[-113.69113,53.37507],[-113.68409,53.36861],[-113.68478,53.365],[-113.68418,53.36267],[-113.68605,53.35862],[-113.6875,53.35694],[-113.68975,53.35548],[-113.69486,53.35406],[-113.70057,53.35447],[-113.70347,53.35512],[-113.70459,53.35576],[-113.70581,53.35795],[-113.70643,53.36183],[-113.70545,53.36815],[-113.70682,53.3705],[-113.70841,53.37124],[-113.71434,53.37128],[-113.72342,53.37037],[-113.73112,53.37034],[-113.73726,53.37068],[-113.74455,53.37191],[-113.74687,53.37191],[-113.74902,53.37135],[-113.75103,53.36977],[-113.75329,53.36684],[-113.75466,53.36342],[-113.75785,53.35974],[-113.76107,53.35781],[-113.76401,53.357],[-113.76763,53.3568],[-113.77347,53.35822],[-113.77501,53.35971],[-113.77622,53.36401],[-113.77728,53.36504],[-113.77888,53.3656],[-113.78167,53.36546],[-113.78409,53.3643],[-113.78717,53.36111],[-113.78934,53.3577],[-113.791,53.35644],[-113.79429,53.35514],[-113.8046,53.35483],[-113.80969,53.35614],[-113.80679,53.35554],[-113.81085,53.35676],[-113.81199,53.35788],[-113.81389,53.35845],[-113.81872,53.35951],[-113.82373,53.35984],[-113.82948,53.36125],[-113.83233,53.36134],[-113.83401,53.36071],[-113.83657,53.35835],[-113.83891,53.35764],[-113.84294,53.35721],[-113.8443,53.35728],[-113.84488,53.35774],[-113.85546,53.35181],[-113.86042,53.35057],[-113.86361,53.34924],[-113.86368,53.34949],[-113.86451,53.34926],[-113.87214,53.34425],[-113.8758,53.34237],[-113.88113,53.34268],[-113.8956,53.34197],[-113.90305,53.3402],[-113.91251,53.33873],[-113.92322,53.33626],[-113.93081,53.33682],[-113.94218,53.33873],[-113.95491,53.33914],[-113.96672,53.34085],[-113.97289,53.34089],[-113.97326,53.34022],[-113.97622,53.33914],[-113.97923,53.33715],[-113.98214,53.33068],[-113.98352,53.32882],[-113.99157,53.32556],[-113.9947,53.325],[-113.99816,53.32499],[-114.00552,53.32629],[-114.01128,53.32782],[-114.01441,53.32798],[-114.0191,53.32689],[-114.0278,53.32355],[-114.03266,53.32297],[-114.03492,53.32317],[-114.03939,53.32474],[-114.0455,53.32596],[-114.05173,53.33225],[-114.05644,53.3354],[-114.05715,53.33637],[-114.05715,53.33673],[-114.05594,53.33572],[-114.05697,53.33766],[-114.05695,53.34192],[-114.05776,53.34416],[-114.06048,53.34714],[-114.0603,53.34869],[-114.06714,53.35039],[-114.07227,53.35103],[-114.07992,53.35046],[-114.08525,53.3494],[-114.08997,53.35021]],[[-114.08838,53.35015],[-114.08631,53.34967],[-114.08488,53.34972],[-114.08625,53.35058],[-114.08763,53.35064],[-114.08838,53.35015]],[[-114.31014,53.42998],[-114.31049,53.43015],[-114.31092,53.43039],[-114.31081,53.43007],[-114.31014,53.42998]],[[-113.88604,53.3428],[-113.88663,53.34299],[-113.88696,53.34267],[-113.88645,53.34267],[-113.88604,53.3428]],[[-113.65807,53.43056],[-113.65743,53.43064],[-113.65741,53.43105],[-113.65807,53.43056]],[[-112.67181,54.03393],[-112.67214,54.03428],[-112.67309,54.03453],[-112.67283,54.03415],[-112.67181,54.03393]],[[-114.38195,53.39421],[-114.38237,53.39466],[-114.3839,53.39502],[-114.38376,53.39492],[-114.38195,53.39421]],[[-112.66321,54.02898],[-112.66307,54.02937],[-112.66452,54.02957],[-112.66439,54.02934],[-112.66321,54.02898]],[[-113.12087,53.79993],[-113.12047,53.80098],[-113.12137,53.79915],[-113.12087,53.79993]],[[-114.49024,53.33362],[-114.48986,53.33423],[-114.49023,53.33438],[-114.49071,53.33393],[-114.49024,53.33362]],[[-114.28147,53.38774],[-114.28168,53.38833],[-114.28235,53.38858],[-114.28248,53.38831],[-114.28147,53.38774]],[[-114.37653,53.41918],[-114.37581,53.41964],[-114.37504,53.42079],[-114.37653,53.41918]],[[-113.6932,53.37153],[-113.69282,53.37169],[-113.69367,53.37265],[-113.69363,53.372],[-113.6932,53.37153]],[[-112.88167,53.93004],[-112.88018,53.93048],[-112.88011,53.9306],[-112.88137,53.93055],[-112.88167,53.93004]],[[-112.83325,54.0394],[-112.83521,54.03907],[-112.8366,54.03851],[-112.83642,54.03847],[-112.83325,54.0394]],[[-113.6533,53.40973],[-113.65259,53.40981],[-113.65373,53.41088],[-113.6533,53.40973]],[[-113.69108,53.38002],[-113.69085,53.38024],[-113.69029,53.38155],[-113.69122,53.38105],[-113.69108,53.38002]],[[-113.93612,53.33814],[-113.93443,53.33836],[-113.93587,53.33866],[-113.93612,53.33814]],[[-113.28398,53.68316],[-113.28323,53.68342],[-113.28272,53.68376],[-113.28416,53.6838],[-113.28398,53.68316]],[[-114.36632,53.40885],[-114.36548,53.40901],[-114.3661,53.40963],[-114.36693,53.40952],[-114.36632,53.40885]],[[-113.28338,53.68455],[-113.28092,53.68586],[-113.281,53.68592],[-113.2829,53.68507],[-113.28338,53.68455]],[[-113.73582,53.372],[-113.73304,53.3714],[-113.73584,53.37223],[-113.73582,53.372]],[[-114.41483,53.34739],[-114.41418,53.3484],[-114.41471,53.349],[-114.41541,53.34832],[-114.41483,53.34739]],[[-114.21014,53.35854],[-114.20892,53.35823],[-114.20759,53.35855],[-114.2094,53.35887],[-114.21014,53.35854]],[[-114.07606,53.35108],[-114.07431,53.3514],[-114.0739,53.35197],[-114.07644,53.35148],[-114.07606,53.35108]],[[-114.10186,53.34918],[-114.10002,53.3493],[-114.1,53.34999],[-114.10174,53.34966],[-114.10186,53.34918]],[[-114.44215,53.35261],[-114.44144,53.35264],[-114.44056,53.3536],[-114.44268,53.35328],[-114.44215,53.35261]],[[-113.99924,53.32662],[-113.99814,53.32599],[-113.99697,53.3262],[-113.9988,53.32687],[-113.99924,53.32662]],[[-113.6992,53.35745],[-113.69868,53.35747],[-113.69825,53.35813],[-113.69927,53.359],[-113.6992,53.35745]],[[-114.5078,53.31576],[-114.50519,53.31645],[-114.5043,53.31743],[-114.50754,53.31631],[-114.5078,53.31576]],[[-114.48647,53.33149],[-114.4846,53.3312],[-114.48516,53.33134],[-114.48488,53.33233],[-114.48647,53.33149]],[[-114.31632,53.42231],[-114.31448,53.42165],[-114.31483,53.42285],[-114.31632,53.42231]],[[-113.12467,53.79744],[-113.12332,53.7987],[-113.1229,53.79995],[-113.12504,53.79764],[-113.12467,53.79744]],[[-113.28291,53.6828],[-113.28183,53.68311],[-113.28025,53.68395],[-113.28248,53.68359],[-113.28354,53.68307],[-113.28291,53.6828]],[[-114.61955,53.3085],[-114.61743,53.30845],[-114.6208,53.30955],[-114.6205,53.30894],[-114.61955,53.3085]],[[-114.48616,53.33195],[-114.48565,53.33238],[-114.48722,53.33255],[-114.48836,53.33147],[-114.48616,53.33195]],[[-113.80863,53.3577],[-113.80738,53.35803],[-113.81036,53.35862],[-113.80994,53.3579],[-113.80863,53.3577]],[[-114.41036,53.34844],[-114.40949,53.34837],[-114.41002,53.34862],[-114.41131,53.3495],[-114.41164,53.34984],[-114.41313,53.3498],[-114.41036,53.34844]],[[-114.01812,53.32879],[-114.01376,53.32913],[-114.01639,53.32955],[-114.01812,53.32879]],[[-114.46994,53.3424],[-114.4681,53.34259],[-114.46668,53.34313],[-114.46938,53.34312],[-114.47036,53.34279],[-114.46994,53.3424]],[[-114.53753,53.31338],[-114.53574,53.31367],[-114.53815,53.31411],[-114.54017,53.31393],[-114.53753,53.31338]],[[-113.21049,53.72981],[-113.20952,53.73037],[-113.2083,53.73186],[-113.21006,53.73111],[-113.21093,53.7301],[-113.21049,53.72981]],[[-113.6928,53.37361],[-113.69207,53.37416],[-113.69285,53.37594],[-113.69352,53.37455],[-113.6928,53.37361]],[[-113.90542,53.34045],[-113.90262,53.34051],[-113.90097,53.34145],[-113.90542,53.34045]],[[-114.30292,53.42511],[-114.3006,53.42448],[-114.30138,53.4255],[-114.30333,53.4258],[-114.30292,53.42511]],[[-113.68906,53.38299],[-113.68648,53.38389],[-113.68323,53.3849],[-113.68589,53.38464],[-113.68906,53.38299]],[[-114.49343,53.32992],[-114.49129,53.32992],[-114.49066,53.33092],[-114.49159,53.33054],[-114.49112,53.33092],[-114.49144,53.33125],[-114.49233,53.33095],[-114.49343,53.32992]],[[-114.26077,53.37083],[-114.25876,53.37178],[-114.25747,53.37216],[-114.26098,53.3718],[-114.26246,53.37089],[-114.26077,53.37083]],[[-114.04055,53.32549],[-114.03552,53.32432],[-114.04172,53.32635],[-114.04055,53.32549]],[[-114.32672,53.42041],[-114.32477,53.42039],[-114.32201,53.42093],[-114.3258,53.42127],[-114.32653,53.42092],[-114.32634,53.42128],[-114.3272,53.42073],[-114.32672,53.42041]],[[-114.51749,53.31088],[-114.5134,53.31175],[-114.51348,53.31223],[-114.5168,53.31189],[-114.51749,53.31088]],[[-113.27777,53.68554],[-113.2758,53.68595],[-113.27393,53.68727],[-113.27748,53.6865],[-113.27777,53.68554]],[[-113.65264,53.40788],[-113.65197,53.40799],[-113.65178,53.4086],[-113.6536,53.40898],[-113.6548,53.4102],[-113.65529,53.41018],[-113.65437,53.4087],[-113.65264,53.40788]],[[-113.98135,53.34022],[-113.98121,53.33946],[-113.98058,53.3394],[-113.97806,53.34138],[-113.9794,53.34119],[-113.98135,53.34022]],[[-114.36498,53.40649],[-114.36256,53.4059],[-114.36262,53.40635],[-114.36463,53.40772],[-114.36498,53.40649]],[[-114.14532,53.34977],[-114.14108,53.34913],[-114.1445,53.35037],[-114.14609,53.35044],[-114.14532,53.34977]],[[-113.78752,53.36388],[-113.78399,53.3655],[-113.78364,53.3661],[-113.78595,53.36563],[-113.78749,53.36416],[-113.78752,53.36388]],[[-114.32882,53.42131],[-114.32666,53.42165],[-114.33047,53.42265],[-114.33121,53.42175],[-114.32882,53.42131]],[[-113.89687,53.34281],[-113.89486,53.34279],[-113.89263,53.34326],[-113.89505,53.34364],[-113.89837,53.34332],[-113.89687,53.34281]],[[-114.11543,53.34629],[-114.11303,53.3465],[-114.11464,53.34743],[-114.11692,53.34746],[-114.11731,53.34689],[-114.11543,53.34629]],[[-113.65767,53.42785],[-113.65661,53.42786],[-113.65576,53.42847],[-113.65831,53.43003],[-113.65896,53.42876],[-113.65767,53.42785]],[[-114.49474,53.32697],[-114.49168,53.32907],[-114.49313,53.3288],[-114.49219,53.3296],[-114.49419,53.32924],[-114.49474,53.32697]],[[-114.46633,53.34071],[-114.46548,53.34102],[-114.46564,53.34127],[-114.46195,53.34337],[-114.46777,53.3417],[-114.46633,53.34071]],[[-113.28259,53.68398],[-113.27829,53.68522],[-113.27801,53.68629],[-113.27942,53.68555],[-113.28122,53.68527],[-113.28268,53.68426],[-113.28259,53.68398]],[[-113.65481,53.42872],[-113.65381,53.42951],[-113.65394,53.43165],[-113.65619,53.43059],[-113.65585,53.42995],[-113.65633,53.4297],[-113.65481,53.42872]],[[-112.949,53.90048],[-112.95001,53.89928],[-112.94737,53.89952],[-112.94605,53.90022],[-112.94571,53.90096],[-112.94677,53.90106],[-112.949,53.90048]],[[-112.88156,53.9307],[-112.87843,53.93185],[-112.87637,53.93348],[-112.88091,53.93189],[-112.88188,53.93095],[-112.88156,53.9307]],[[-114.07844,53.35143],[-114.07316,53.35252],[-114.07764,53.3531],[-114.07844,53.35143]],[[-114.04193,53.32605],[-114.04746,53.32892],[-114.04757,53.32849],[-114.04518,53.32638],[-114.04193,53.32605]],[[-112.47188,53.98942],[-112.46534,53.99044],[-112.4737,53.99018],[-112.47318,53.98961],[-112.47188,53.98942]],[[-113.97817,53.33951],[-113.97837,53.3388],[-113.97778,53.33864],[-113.97262,53.34151],[-113.97526,53.34109],[-113.97523,53.34155],[-113.97817,53.33951]],[[-113.66528,53.38066],[-113.66158,53.38106],[-113.6665,53.38239],[-113.66833,53.38232],[-113.66709,53.38107],[-113.66528,53.38066]],[[-114.28853,53.41506],[-114.28531,53.41748],[-114.28402,53.41988],[-114.28793,53.41717],[-114.28853,53.41506]],[[-114.45513,53.34421],[-114.45043,53.34445],[-114.4498,53.34504],[-114.44786,53.34493],[-114.4471,53.34565],[-114.44921,53.34545],[-114.44727,53.34594],[-114.44734,53.34628],[-114.44823,53.34648],[-114.45178,53.34522],[-114.45521,53.34467],[-114.45557,53.34452],[-114.45513,53.34421]],[[-113.80656,53.35569],[-113.80023,53.35504],[-113.80402,53.35703],[-113.80571,53.35752],[-113.80674,53.35727],[-113.80656,53.35569]],[[-113.99245,53.32635],[-113.98796,53.32845],[-113.99474,53.32768],[-113.99596,53.32714],[-113.99556,53.32646],[-113.99378,53.32621],[-113.99245,53.32635]],[[-112.37207,54.03176],[-112.3728,54.03048],[-112.37247,54.02978],[-112.36451,54.03264],[-112.36952,54.03233],[-112.37207,54.03176]],[[-114.36488,53.42124],[-114.36282,53.42158],[-114.36486,53.42159],[-114.36145,53.42171],[-114.36171,53.42202],[-114.3612,53.42211],[-114.36613,53.42374],[-114.36698,53.42389],[-114.36799,53.42358],[-114.36705,53.42192],[-114.36488,53.42124]],[[-114.28229,53.38985],[-114.28882,53.3913],[-114.29061,53.39084],[-114.28421,53.38903],[-114.28169,53.38891],[-114.28229,53.38985]],[[-112.84312,54.03372],[-112.84008,54.03581],[-112.83368,54.03903],[-112.84119,54.03669],[-112.84357,54.03442],[-112.84387,54.03396],[-112.84312,54.03372]],[[-114.11996,53.34818],[-114.12679,53.34704],[-114.12503,53.34657],[-114.12046,53.34676],[-114.11825,53.34714],[-114.11684,53.34797],[-114.11996,53.34818]],[[-114.07937,53.35224],[-114.07776,53.35337],[-114.08081,53.35329],[-114.08362,53.35239],[-114.08337,53.35283],[-114.08621,53.35155],[-114.08528,53.35097],[-114.08316,53.35086],[-114.0793,53.35125],[-114.07869,53.35188],[-114.07937,53.35224]],[[-114.41039,53.34558],[-114.40727,53.34669],[-114.40815,53.34707],[-114.40753,53.34731],[-114.41375,53.34898],[-114.41394,53.3464],[-114.41039,53.34558]],[[-112.94323,53.8988],[-112.93843,53.90212],[-112.94119,53.90138],[-112.94466,53.90111],[-112.94613,53.89991],[-112.9479,53.89911],[-112.94323,53.8988]],[[-114.19109,53.35822],[-114.19385,53.35803],[-114.19454,53.3575],[-114.19143,53.35689],[-114.18468,53.35716],[-114.17985,53.35647],[-114.18005,53.35684],[-114.18285,53.35768],[-114.19109,53.35822]],[[-114.37795,53.38773],[-114.37724,53.38922],[-114.37789,53.39023],[-114.3796,53.39119],[-114.38084,53.39018],[-114.38206,53.38701],[-114.38056,53.38678],[-114.37795,53.38773]],[[-114.36157,53.40531],[-114.36216,53.40557],[-114.36161,53.40444],[-114.36251,53.40533],[-114.36494,53.40586],[-114.36547,53.40539],[-114.36477,53.40294],[-114.36289,53.40116],[-114.36194,53.40162],[-114.36099,53.40318],[-114.36157,53.40531]],[[-113.69114,53.37227],[-113.69071,53.3711],[-113.68912,53.37004],[-113.68885,53.36936],[-113.68564,53.36763],[-113.6849,53.36666],[-113.68448,53.36858],[-113.685,53.3692],[-113.6886,53.37156],[-113.6904,53.37343],[-113.69114,53.37227]],[[-114.31888,53.42249],[-114.31594,53.42358],[-114.31452,53.4248],[-114.31396,53.42649],[-114.31466,53.42657],[-114.31499,53.42595],[-114.31599,53.42769],[-114.31676,53.42745],[-114.31728,53.42595],[-114.31772,53.42619],[-114.31812,53.42582],[-114.31908,53.42386],[-114.31888,53.42249]],[[-113.84173,53.35804],[-113.83694,53.35889],[-113.83588,53.36072],[-113.83997,53.3608],[-113.8418,53.36041],[-113.84439,53.35826],[-113.84173,53.35804]],[[-114.21185,53.3589],[-114.20959,53.35968],[-114.21173,53.36006],[-114.21707,53.35992],[-114.22139,53.36029],[-114.223,53.35973],[-114.22232,53.3592],[-114.21904,53.35856],[-114.21627,53.35845],[-114.21185,53.3589]],[[-114.11166,53.34932],[-114.11312,53.34889],[-114.11328,53.34814],[-114.10989,53.34709],[-114.10806,53.34707],[-114.1013,53.34836],[-114.09607,53.35022],[-114.09889,53.35016],[-114.10011,53.34904],[-114.10273,53.34855],[-114.10831,53.3493],[-114.11176,53.34895],[-114.11166,53.34932]],[[-113.95855,53.34215],[-113.96023,53.34168],[-113.96017,53.34128],[-113.95131,53.34031],[-113.94227,53.33973],[-113.94145,53.34007],[-113.94563,53.34126],[-113.94851,53.34128],[-113.94844,53.34158],[-113.95351,53.34176],[-113.95591,53.3422],[-113.95855,53.34215]],[[-113.69674,53.35652],[-113.69929,53.35742],[-113.70004,53.3595],[-113.70406,53.36214],[-113.70434,53.36007],[-113.70322,53.35716],[-113.70224,53.35585],[-113.70131,53.35546],[-113.69405,53.35527],[-113.69129,53.35601],[-113.68882,53.35744],[-113.69032,53.35693],[-113.69221,53.35687],[-113.69455,53.356],[-113.69674,53.35652]],[[-114.52829,53.31307],[-114.53806,53.3127],[-114.53642,53.31124],[-114.53349,53.31047],[-114.53197,53.31069],[-114.52961,53.30987],[-114.52506,53.30951],[-114.52375,53.30991],[-114.52486,53.31071],[-114.52557,53.31056],[-114.52568,53.3111],[-114.52718,53.31148],[-114.5259,53.31148],[-114.5238,53.3108],[-114.5249,53.31236],[-114.52457,53.31285],[-114.52829,53.31307]],[[-113.206,53.72642],[-113.20458,53.72717],[-113.20346,53.72863],[-113.20097,53.72999],[-113.19842,53.73442],[-113.20285,53.73319],[-113.20683,53.73072],[-113.20982,53.72658],[-113.2095,53.72622],[-113.206,53.72642]],[[-113.83074,53.36271],[-113.82802,53.36248],[-113.82463,53.36104],[-113.82493,53.36139],[-113.82223,53.36062],[-113.81611,53.36025],[-113.81025,53.35883],[-113.80619,53.35885],[-113.80806,53.35979],[-113.80931,53.35975],[-113.80874,53.36003],[-113.81329,53.3614],[-113.81646,53.36305],[-113.82639,53.36379],[-113.82995,53.36332],[-113.83074,53.36271]],[[-114.48096,53.33677],[-114.4819,53.33802],[-114.48173,53.3407],[-114.48528,53.34014],[-114.4863,53.33963],[-114.48695,53.33834],[-114.48634,53.33763],[-114.48629,53.33621],[-114.48706,53.33583],[-114.4877,53.336],[-114.48857,53.33684],[-114.48962,53.33619],[-114.48989,53.33303],[-114.48123,53.33335],[-114.47958,53.33513],[-114.47982,53.33644],[-114.48096,53.33677]],[[-112.94836,53.89848],[-112.953,53.89764],[-112.96045,53.89438],[-112.96274,53.89288],[-112.96512,53.89051],[-112.96337,53.89009],[-112.96137,53.89021],[-112.95663,53.89132],[-112.951,53.89456],[-112.94649,53.89618],[-112.94443,53.89775],[-112.94836,53.89848]],[[-114.45527,53.35124],[-114.45617,53.35249],[-114.45978,53.34938],[-114.45971,53.3489],[-114.45785,53.348],[-114.45736,53.34719],[-114.45789,53.34564],[-114.4574,53.34539],[-114.45232,53.34601],[-114.45299,53.34649],[-114.45227,53.34655],[-114.45439,53.34731],[-114.45582,53.34693],[-114.45526,53.34749],[-114.4536,53.34739],[-114.45089,53.34641],[-114.44685,53.34713],[-114.44416,53.34692],[-114.44136,53.34808],[-114.43997,53.34913],[-114.43907,53.35069],[-114.43912,53.3513],[-114.43963,53.35087],[-114.43904,53.35328],[-114.44015,53.35309],[-114.44144,53.3522],[-114.44494,53.35148],[-114.44882,53.35196],[-114.45117,53.35321],[-114.4537,53.35358],[-114.45522,53.35281],[-114.45527,53.35124]],[[-114.34092,53.43074],[-114.34871,53.43112],[-114.35178,53.42955],[-114.3513,53.42707],[-114.35053,53.42714],[-114.35192,53.42492],[-114.3519,53.42438],[-114.34885,53.42519],[-114.35143,53.42524],[-114.3471,53.42561],[-114.34523,53.42545],[-114.34057,53.42385],[-114.33727,53.42328],[-114.33615,53.42481],[-114.33119,53.42642],[-114.33038,53.42713],[-114.33055,53.4285],[-114.33374,53.43016],[-114.33819,53.43091],[-114.34092,53.43074]],[[-114.3202,53.42013],[-114.3275,53.41927],[-114.3216,53.41536],[-114.32083,53.41427],[-114.32066,53.41323],[-114.32192,53.41159],[-114.32124,53.41043],[-114.3192,53.40923],[-114.31686,53.4092],[-114.31386,53.40984],[-114.31227,53.41057],[-114.30993,53.41294],[-114.30737,53.41442],[-114.30877,53.41516],[-114.31116,53.41862],[-114.3142,53.41898],[-114.31481,53.4202],[-114.31551,53.42053],[-114.31406,53.42041],[-114.31482,53.42138],[-114.31683,53.42155],[-114.3202,53.42013]],[[-114.43317,53.35284],[-114.43155,53.3534],[-114.43301,53.35345],[-114.43262,53.35379],[-114.43366,53.35388],[-114.43524,53.35373],[-114.43664,53.35306],[-114.43924,53.34825],[-114.43493,53.34801],[-114.434,53.34762],[-114.43428,53.346],[-114.437,53.34362],[-114.43578,53.34288],[-114.43387,53.34252],[-114.43125,53.343],[-114.43002,53.34355],[-114.42947,53.34451],[-114.42758,53.34486],[-114.42594,53.34476],[-114.42347,53.34399],[-114.4197,53.34623],[-114.41702,53.34599],[-114.41539,53.34474],[-114.41219,53.34494],[-114.41464,53.34621],[-114.4157,53.3481],[-114.41525,53.34921],[-114.41773,53.35036],[-114.42047,53.35128],[-114.42781,53.35273],[-114.43317,53.35284]],[[-114.39939,53.3611],[-114.4133,53.36274],[-114.41726,53.362],[-114.41582,53.36099],[-114.41487,53.35863],[-114.41332,53.35698],[-114.41208,53.35657],[-114.40991,53.35672],[-114.41097,53.35637],[-114.4135,53.35661],[-114.41406,53.35625],[-114.41342,53.35554],[-114.40684,53.35409],[-114.40566,53.35345],[-114.40592,53.35236],[-114.40794,53.3514],[-114.407,53.35072],[-114.40722,53.34954],[-114.40819,53.3491],[-114.41024,53.3489],[-114.40811,53.34829],[-114.4053,53.34844],[-114.40192,53.34971],[-114.39958,53.35139],[-114.39788,53.35413],[-114.39586,53.35934],[-114.39709,53.36055],[-114.39939,53.3611]],[[-114.30993,53.42898],[-114.31132,53.42917],[-114.31246,53.42827],[-114.3138,53.42361],[-114.31383,53.42126],[-114.31278,53.42032],[-114.30785,53.4184],[-114.30742,53.41515],[-114.30634,53.41464],[-114.30145,53.41426],[-114.29981,53.41285],[-114.29966,53.41106],[-114.29824,53.41059],[-114.29697,53.41229],[-114.29775,53.4134],[-114.29748,53.41438],[-114.29426,53.41651],[-114.29292,53.41805],[-114.29287,53.41887],[-114.29435,53.4202],[-114.29767,53.42173],[-114.29805,53.42321],[-114.30097,53.42364],[-114.30569,53.42506],[-114.30993,53.42898]]],[[[-113.82307,53.361],[-113.82551,53.36201],[-113.82396,53.36216],[-113.82012,53.36129],[-113.8209,53.36069],[-113.82307,53.361]]],[[[-112.85181,53.99642],[-112.85162,53.99926],[-112.8515,53.99682],[-112.85078,53.99575],[-112.85005,53.99556],[-112.8503,53.99528],[-112.85124,53.99551],[-112.85181,53.99642]]],[[[-112.85317,54.00704],[-112.85372,54.00464],[-112.85185,54.0015],[-112.8542,54.00479],[-112.85347,54.00829],[-112.85317,54.00704]]]]}},{"type":"Feature","properties":{"t":"highway","kind":"highway"},"geometry":{"type":"MultiLineString","coordinates":[[[-114.62078,53.58407],[-114.55538,53.58427],[-114.55205,53.58365],[-114.51545,53.57285],[-114.49516,53.57014],[-114.49045,53.56986],[-114.17283,53.57007],[-114.14816,53.56841],[-114.07691,53.57178],[-114.04686,53.56957],[-113.97516,53.56954],[-113.95209,53.56863],[-113.94169,53.56892],[-113.91768,53.57057],[-113.88837,53.56946],[-113.84612,53.57104],[-113.79134,53.56958],[-113.69598,53.56973],[-113.68571,53.5705],[-113.67012,53.57327],[-113.66191,53.57364]],[[-113.66188,53.57388],[-113.6698,53.57361],[-113.68549,53.57088],[-113.6957,53.57007],[-113.79209,53.56992],[-113.8445,53.5714],[-113.8872,53.56981],[-113.91768,53.57092],[-113.95126,53.56899],[-113.97666,53.56989],[-114.04679,53.5699],[-114.0769,53.57214],[-114.14865,53.56873],[-114.17093,53.57028],[-114.49071,53.57021],[-114.51535,53.57319],[-114.55497,53.58458],[-114.62078,53.58442]],[[-114.6188,53.80357],[-114.569,53.7952],[-114.52116,53.7951],[-114.51621,53.79455],[-114.51216,53.79323],[-114.49468,53.78459],[-114.48008,53.78176],[-114.43686,53.76759],[-114.41314,53.75631],[-114.4026,53.74863],[-114.38361,53.74007],[-114.32213,53.72927],[-114.29998,53.7214],[-114.27771,53.71621],[-114.27194,53.71563],[-114.23282,53.71552],[-114.22914,53.71501],[-114.22595,53.71376],[-114.22354,53.71164],[-114.22272,53.70907],[-114.22308,53.57176]],[[-114.22277,53.57303],[-114.22276,53.67209],[-114.22211,53.7082],[-114.22287,53.71158],[-114.22565,53.71406],[-114.22888,53.71532],[-114.23231,53.71584],[-114.27012,53.71595],[-114.27779,53.71657],[-114.29955,53.72164],[-114.32229,53.72967],[-114.38317,53.74035],[-114.40171,53.74864],[-114.41307,53.75675],[-114.43654,53.7679],[-114.47985,53.78212],[-114.49476,53.78521],[-114.51169,53.79342],[-114.516,53.79485],[-114.52117,53.79543],[-114.56964,53.79561],[-114.6188,53.80393]],[[-113.65946,53.54126],[-113.70743,53.54142]],[[-113.70553,53.54125],[-113.66893,53.541],[-113.66594,53.54054],[-113.65948,53.53851]],[[-113.66188,53.57388],[-113.66191,53.57364]],[[-113.66191,53.57364],[-113.66187,53.57039],[-113.65944,53.55752],[-113.65946,53.54126]],[[-113.66191,53.57364],[-113.66139,53.57363]],[[-113.3941,53.63546],[-113.43263,53.64542],[-113.44237,53.64702],[-113.50999,53.6471],[-113.51732,53.64655],[-113.52548,53.64518],[-113.57463,53.63017],[-113.58785,53.62452],[-113.64937,53.58979],[-113.65462,53.58573],[-113.6585,53.58162],[-113.66082,53.57768],[-113.66188,53.57388]],[[-113.66136,53.57387],[-113.66188,53.57388]],[[-113.66139,53.57363],[-113.66136,53.57387]],[[-113.65878,53.54126],[-113.65881,53.55686],[-113.66127,53.56967],[-113.66139,53.57363]],[[-113.66139,53.57363],[-113.64634,53.5732],[-113.6286,53.57152],[-113.62461,53.57151],[-113.61582,53.5731],[-113.59724,53.57767],[-113.58005,53.58121],[-113.54845,53.58113],[-113.54417,53.58064],[-113.53978,53.58046],[-113.5187,53.58084],[-113.5129,53.58184],[-113.50766,53.58127],[-113.47258,53.58124],[-113.46823,53.58209],[-113.45713,53.58237],[-113.4548,53.58179],[-113.45125,53.57922],[-113.44932,53.57839],[-113.4366,53.57821],[-113.43423,53.57856],[-113.42984,53.5809],[-113.42726,53.5817],[-113.41785,53.58233],[-113.40785,53.58124],[-113.39171,53.57736],[-113.36783,53.5693],[-113.36463,53.56909],[-113.34521,53.5699]],[[-113.66136,53.57387],[-113.66041,53.57733],[-113.65799,53.58132],[-113.65384,53.58564],[-113.64923,53.58922],[-113.58712,53.62433],[-113.57458,53.62964],[-113.5264,53.64447],[-113.5169,53.64612],[-113.50751,53.64669],[-113.44169,53.6465],[-113.43342,53.6451],[-113.39428,53.63499]],[[-113.34521,53.57021],[-113.35552,53.56994],[-113.36693,53.57082],[-113.38157,53.57439],[-113.39087,53.57741],[-113.40587,53.5811],[-113.41237,53.5822],[-113.41773,53.58248],[-113.42776,53.58175],[-113.43035,53.58085],[-113.43404,53.57879],[-113.43651,53.57836],[-113.44927,53.57854],[-113.45462,53.58189],[-113.45729,53.58251],[-113.468,53.58226],[-113.47314,53.58138],[-113.50766,53.58141],[-113.51336,53.58198],[-113.51872,53.58099],[-113.53977,53.58054],[-113.54844,53.58118],[-113.58009,53.58135],[-113.59898,53.57744],[-113.61593,53.57326],[-113.62462,53.57171],[-113.62789,53.57169],[-113.64565,53.57339],[-113.66136,53.57387]],[[-113.66211,53.51217],[-113.6595,53.51216]],[[-113.6595,53.51229],[-113.66197,53.5123]],[[-113.65878,53.54126],[-113.65946,53.54126]],[[-113.65946,53.54126],[-113.65948,53.53851]],[[-113.65948,53.53851],[-113.6595,53.51229]],[[-113.65948,53.53851],[-113.65879,53.53829]],[[-113.64949,53.54125],[-113.65878,53.54126]],[[-113.65879,53.53829],[-113.65878,53.54126]],[[-113.65908,53.51229],[-113.65879,53.53829]],[[-113.65879,53.53829],[-113.65314,53.53687]],[[-113.65908,53.51229],[-113.6595,53.51229]],[[-113.6595,53.51229],[-113.6595,53.51216]],[[-113.6595,53.51216],[-113.65908,53.51216]],[[-113.6595,53.51216],[-113.65967,53.48353],[-113.65866,53.47997],[-113.65624,53.47649],[-113.65241,53.47334],[-113.64764,53.4709],[-113.62635,53.46482],[-113.62023,53.46231],[-113.61455,53.45916],[-113.60934,53.45525],[-113.60624,53.4521],[-113.5954,53.43747],[-113.59226,53.43493],[-113.5875,53.43227],[-113.58246,53.43037],[-113.57672,53.42901],[-113.56996,53.42829],[-113.56453,53.42833],[-113.55681,53.42935],[-113.54367,53.43301],[-113.53665,53.43425],[-113.53038,53.43465],[-113.51147,53.43472],[-113.49052,53.43716]],[[-113.49544,53.48053],[-113.50049,53.48071],[-113.51034,53.48223],[-113.5164,53.48283],[-113.52142,53.48313],[-113.5415,53.48312],[-113.56274,53.48262],[-113.56877,53.48308],[-113.57056,53.4845],[-113.57157,53.48666],[-113.57176,53.49745],[-113.5709,53.49946],[-113.56783,53.50162],[-113.56701,53.50254],[-113.5666,53.50361],[-113.5665,53.50576],[-113.56684,53.50767],[-113.5677,53.50966],[-113.56891,53.51068],[-113.57062,53.51131],[-113.58162,53.51259],[-113.58815,53.51202],[-113.65908,53.51229]],[[-113.65908,53.51216],[-113.65908,53.51229]],[[-113.65908,53.51216],[-113.58844,53.5119],[-113.58158,53.51248],[-113.57085,53.51125],[-113.56781,53.50956],[-113.56667,53.50528],[-113.56738,53.50229],[-113.57097,53.49963],[-113.57208,53.49786],[-113.57259,53.4843],[-113.57118,53.48271],[-113.55995,53.48244],[-113.54174,53.48299],[-113.52143,53.48301],[-113.50909,53.48196],[-113.50049,53.48059],[-113.49546,53.4804]],[[-113.49059,53.43747],[-113.51126,53.43505],[-113.53649,53.4346],[-113.54337,53.43343],[-113.55715,53.42961],[-113.56509,53.42861],[-113.57149,53.42869],[-113.57657,53.42931],[-113.58227,53.43066],[-113.58689,53.43238],[-113.59119,53.43469],[-113.59497,53.43766],[-113.60565,53.45213],[-113.60965,53.45611],[-113.61416,53.45942],[-113.61998,53.46262],[-113.62632,53.46522],[-113.64735,53.47117],[-113.65185,53.47344],[-113.65564,53.47649],[-113.65797,53.47969],[-113.65914,53.48354],[-113.65908,53.51216]],[[-113.49052,53.43716],[-113.49069,53.43507],[-113.49362,53.42997],[-113.49344,53.42029],[-113.49416,53.41804],[-113.5062,53.4066],[-113.51323,53.39483],[-113.5159,53.3875],[-113.54919,53.34103],[-113.54983,53.33802],[-113.54994,53.28289],[-113.55163,53.27887],[-113.55371,53.27685],[-113.56005,53.27253],[-113.56368,53.26648],[-113.56387,53.2637],[-113.56186,53.25886],[-113.56185,53.24524],[-113.56252,53.24277],[-113.59612,53.20248],[-113.5982,53.19887],[-113.59856,53.05552],[-113.6001,53.05254],[-113.64212,53.00093],[-113.64337,52.99751],[-113.64755,52.96705],[-113.64758,52.96307],[-113.64413,52.93963],[-113.64411,52.79733]],[[-113.64361,52.79733],[-113.64367,52.93963],[-113.64715,52.96321],[-113.64702,52.96762],[-113.64291,52.9975],[-113.6417,53.00083],[-113.59948,53.05267],[-113.5981,53.05551],[-113.59774,53.19881],[-113.59569,53.20239],[-113.56212,53.24274],[-113.56154,53.24523],[-113.56157,53.25906],[-113.56353,53.26347],[-113.5635,53.26605],[-113.55989,53.27219],[-113.5535,53.27633],[-113.55132,53.27833],[-113.54926,53.28277],[-113.54796,53.29576],[-113.54794,53.33733],[-113.54733,53.34094],[-113.5163,53.38439],[-113.51211,53.3948],[-113.50247,53.40385],[-113.49535,53.4134],[-113.49327,53.41835],[-113.49286,53.426],[-113.49001,53.43484],[-113.49008,53.43719]],[[-113.49546,53.4804],[-113.49198,53.48039]],[[-113.49544,53.48053],[-113.49546,53.4804]],[[-113.49546,53.4804],[-113.49561,53.46603],[-113.49236,53.45942],[-113.49287,53.44221],[-113.49059,53.43747]],[[-113.49197,53.48049],[-113.49544,53.48053]],[[-113.49533,53.48111],[-113.49544,53.48053]],[[-113.49197,53.48049],[-113.49197,53.48096]],[[-113.34301,53.48301],[-113.35761,53.483],[-113.36654,53.48221],[-113.3717,53.48224],[-113.37721,53.48309],[-113.38664,53.48588],[-113.39265,53.48712],[-113.40002,53.48767],[-113.40934,53.48771],[-113.42069,53.48716],[-113.43961,53.48538],[-113.45354,53.48494],[-113.45831,53.4844],[-113.47885,53.48102],[-113.49197,53.48049]],[[-113.49198,53.48039],[-113.49197,53.48049]],[[-113.49198,53.48039],[-113.47956,53.4808],[-113.45351,53.48482],[-113.44044,53.4852],[-113.42065,53.48703],[-113.40819,53.4876],[-113.39269,53.48699],[-113.38676,53.48577],[-113.37667,53.48282],[-113.37175,53.48212],[-113.36655,53.48208],[-113.35763,53.48281],[-113.34301,53.48277]],[[-113.49016,53.4375],[-113.49264,53.44286],[-113.49198,53.48039]],[[-113.49016,53.4375],[-113.49059,53.43747]],[[-113.49059,53.43747],[-113.49052,53.43716]],[[-113.49052,53.43716],[-113.49008,53.43719]],[[-113.34301,53.48277],[-113.34432,53.46975],[-113.3444,53.45594],[-113.34599,53.45162],[-113.34882,53.44802],[-113.35389,53.44438],[-113.35825,53.44239],[-113.3704,53.43826],[-113.37916,53.43629],[-113.38722,53.4357],[-113.44407,53.43583],[-113.46656,53.43759],[-113.48179,53.43781],[-113.49016,53.4375]],[[-113.49008,53.43719],[-113.49016,53.4375]],[[-113.49008,53.43719],[-113.48239,53.4375],[-113.46632,53.43724],[-113.44405,53.43548],[-113.3872,53.43537],[-113.3787,53.43602],[-113.37064,53.43781],[-113.35853,53.44189],[-113.35398,53.44387],[-113.34942,53.44689],[-113.34579,53.4509],[-113.34374,53.45677],[-113.34374,53.46978],[-113.34244,53.48277]],[[-113.43657,53.51747],[-113.42948,53.51557],[-113.42047,53.51408],[-113.40231,53.51663],[-113.37306,53.51744],[-113.34436,53.51281]],[[-113.34436,53.51312],[-113.3725,53.51769],[-113.40214,53.51688],[-113.42059,53.51428],[-113.43648,53.5176]],[[-113.39428,53.63499],[-113.39688,53.62823]],[[-113.39652,53.62793],[-113.39385,53.63488]],[[-113.3941,53.63546],[-113.39428,53.63499]],[[-113.39428,53.63499],[-113.39385,53.63488]],[[-113.31836,53.68585],[-113.35317,53.66343],[-113.38378,53.65197],[-113.3865,53.6506],[-113.38953,53.64726],[-113.3941,53.63546]],[[-113.39366,53.63535],[-113.3941,53.63546]],[[-113.39385,53.63488],[-113.39366,53.63535]],[[-113.39385,53.63488],[-113.38604,53.63263],[-113.38012,53.62983],[-113.36259,53.61963],[-113.35703,53.61445],[-113.35524,53.61149],[-113.34547,53.58706],[-113.34475,53.58208],[-113.34521,53.57021]],[[-113.39366,53.63535],[-113.38882,53.64772],[-113.38613,53.65044],[-113.35198,53.66368],[-113.31813,53.68559],[-113.31836,53.68585]],[[-113.34463,53.57022],[-113.34418,53.58209],[-113.3449,53.58708],[-113.35427,53.61061],[-113.35654,53.61464],[-113.36259,53.62015],[-113.38081,53.63069],[-113.38685,53.63337],[-113.39366,53.63535]],[[-113.34463,53.57022],[-113.34521,53.57021]],[[-113.34521,53.57021],[-113.34521,53.5699]],[[-113.34521,53.5699],[-113.34463,53.5699]],[[-113.34521,53.5699],[-113.34451,53.55208],[-113.34295,53.54142],[-113.34523,53.52717],[-113.34436,53.51312]],[[-112.36894,53.5706],[-112.79023,53.57063],[-112.79728,53.57112],[-112.81514,53.57401],[-112.81893,53.57424],[-112.866,53.57015],[-112.89102,53.56582],[-112.89632,53.5654],[-112.93507,53.57014],[-112.93994,53.57041],[-113.0741,53.57016],[-113.34463,53.57022]],[[-113.34463,53.5699],[-113.34463,53.57022]],[[-113.34463,53.5699],[-113.11766,53.56998],[-113.10224,53.56911],[-113.08848,53.56993],[-112.93981,53.57015],[-112.8962,53.5651],[-112.89216,53.56535],[-112.86597,53.56985],[-112.81968,53.57395],[-112.8155,53.57377],[-112.79799,53.57093],[-112.7902,53.57036],[-112.36896,53.57027]],[[-113.34377,53.51302],[-113.34467,53.52727],[-113.34237,53.54149],[-113.34394,53.55215],[-113.34463,53.5699]],[[-113.34436,53.51312],[-113.34436,53.51281]],[[-113.34377,53.51302],[-113.34436,53.51312]],[[-113.34436,53.51281],[-113.34435,53.49772],[-113.34301,53.48301]],[[-113.34436,53.51281],[-113.34377,53.51271]],[[-113.34377,53.51271],[-113.34377,53.51302]],[[-113.33281,53.51219],[-113.33903,53.5123],[-113.34377,53.51302]],[[-113.34244,53.48301],[-113.3438,53.49827],[-113.34377,53.51271]],[[-113.34377,53.51271],[-113.33923,53.51208],[-113.33255,53.51206]],[[-113.34244,53.48301],[-113.34301,53.48301]],[[-113.34301,53.48301],[-113.34301,53.48277]],[[-113.34301,53.48277],[-113.34244,53.48277]],[[-113.34244,53.48277],[-113.33225,53.48297],[-113.34244,53.48301]],[[-113.34244,53.48277],[-113.34244,53.48301]],[[-113.32243,53.85765],[-113.32273,53.9143],[-113.32047,53.91955],[-113.31578,53.92353],[-113.28384,53.93908],[-113.28048,53.9411],[-113.27309,53.94701],[-113.26815,53.94874],[-113.15847,53.94895],[-113.15561,53.94921],[-113.15302,53.94999],[-113.15035,53.95181],[-113.14931,53.95418],[-113.14919,54.00997],[-113.14845,54.01233],[-113.14624,54.01447],[-113.13321,54.01944],[-113.12832,54.02071],[-113.05678,54.02786],[-113.02533,54.0366],[-113.02597,54.0671],[-113.02572,54.23432],[-113.02349,54.2379],[-113.00578,54.25077]],[[-113.32243,53.85765],[-113.32217,53.8385]],[[-113.32217,53.8385],[-113.32172,53.84237],[-113.32243,53.85765]],[[-113.31836,53.68585],[-113.32016,53.68872],[-113.32005,53.71199],[-113.32222,53.7214],[-113.32303,53.80707],[-113.32217,53.8385]]]}},{"type":"Feature","properties":{"t":"boundary","kind":"place","name":"St. Albert"},"geometry":{"type":"Polygon","coordinates":[[[-113.70616,53.62956],[-113.69597,53.62571],[-113.69363,53.62031],[-113.68352,53.6181],[-113.67802,53.62183],[-113.67123,53.62127],[-113.66572,53.61551],[-113.65859,53.61409],[-113.66199,53.60801],[-113.67204,53.5996],[-113.63896,53.59971],[-113.63876,53.60697],[-113.6279,53.60516],[-113.61875,53.61],[-113.61557,53.61404],[-113.60865,53.61407],[-113.6043,53.61921],[-113.60284,53.61845],[-113.60199,53.62053],[-113.58104,53.62957],[-113.57903,53.63216],[-113.57303,53.63152],[-113.56568,53.63382],[-113.56564,53.65066],[-113.57805,53.66053],[-113.59473,53.66619],[-113.59357,53.66212],[-113.59704,53.66112],[-113.61124,53.68169],[-113.61478,53.68276],[-113.61478,53.68729],[-113.66953,53.68721],[-113.67444,53.68279],[-113.67478,53.67977],[-113.71507,53.67956],[-113.71369,53.64356],[-113.70192,53.6401],[-113.70671,53.63651],[-113.70616,53.62956]]]}},{"type":"Feature","properties":{"t":"boundary","kind":"place","name":"Sherwood Park"},"geometry":{"type":"Polygon","coordinates":[[[-113.37774,53.56304],[-113.3817,53.55231],[-113.38828,53.55047],[-113.39396,53.55084],[-113.40149,53.55587],[-113.40159,53.54149],[-113.39403,53.54136],[-113.39404,53.51604],[-113.37432,53.51702],[-113.3699,53.51521],[-113.36356,53.51583],[-113.35534,53.51438],[-113.36016,53.5122],[-113.3537,53.514],[-113.35066,53.51205],[-113.33247,53.51196],[-113.3309,53.50969],[-113.30802,53.51052],[-113.30786,53.5068],[-113.30262,53.50646],[-113.3025,53.50836],[-113.29577,53.50823],[-113.29576,53.50611],[-113.29138,53.5061],[-113.29138,53.50473],[-113.27143,53.50467],[-113.27083,53.51191],[-113.24636,53.51203],[-113.2459,53.6244],[-113.24788,53.62589],[-113.26288,53.62863],[-113.28299,53.62866],[-113.28301,53.62125],[-113.29551,53.62125],[-113.29719,53.60531],[-113.2956,53.57068],[-113.318,53.57074],[-113.32041,53.57246],[-113.33232,53.57045],[-113.35691,53.57082],[-113.35699,53.56843],[-113.37222,53.56984],[-113.37774,53.56304]]]}},{"type":"Feature","properties":{"t":"boundary","kind":"place","name":"Spruce Grove"},"geometry":{"type":"Polygon","coordinates":[[[-113.95907,53.55567],[-113.96139,53.55018],[-113.95993,53.54159],[-113.94693,53.54187],[-113.94706,53.51222],[-113.93149,53.51219],[-113.92224,53.51415],[-113.92229,53.51936],[-113.88523,53.51939],[-113.88531,53.52662],[-113.86062,53.52661],[-113.86071,53.54031],[-113.84857,53.54106],[-113.84859,53.5702],[-113.88009,53.56932],[-113.88385,53.56859],[-113.88494,53.56668],[-113.88629,53.56861],[-113.91025,53.57014],[-113.95909,53.56849],[-113.95907,53.55567]]]}},{"type":"Feature","properties":{"t":"boundary","kind":"place","name":"Fort Saskatchewan"},"geometry":{"type":"Polygon","coordinates":[[[-113.27217,53.66696],[-113.28327,53.65755],[-113.21377,53.65757],[-113.18461,53.68197],[-113.1846,53.70131],[-113.17215,53.70129],[-113.1722,53.71581],[-113.12446,53.71572],[-113.12441,53.77437],[-113.15512,53.7744],[-113.16692,53.76775],[-113.16956,53.76363],[-113.1698,53.75485],[-113.17362,53.74929],[-113.19743,53.73447],[-113.20408,53.72702],[-113.20974,53.72536],[-113.21562,53.71591],[-113.24626,53.69802],[-113.26506,53.69114],[-113.29065,53.67749],[-113.29288,53.67231],[-113.27935,53.67354],[-113.27243,53.67054],[-113.27217,53.66696]]]}},{"type":"Feature","properties":{"t":"boundary","kind":"place","name":"Leduc"},"geometry":{"type":"Polygon","coordinates":[[[-113.61054,53.27963],[-113.61059,53.24328],[-113.56109,53.24328],[-113.56183,53.23605],[-113.5007,53.23605],[-113.5007,53.25068],[-113.48866,53.25069],[-113.48868,53.27959],[-113.51306,53.27957],[-113.51305,53.30863],[-113.54379,53.30819],[-113.54668,53.30457],[-113.54685,53.29423],[-113.54946,53.29423],[-113.54948,53.27978],[-113.61054,53.27963]]]}},{"type":"Feature","properties":{"t":"boundary","kind":"place","name":"Beaumont"},"geometry":{"type":"Polygon","coordinates":[[[-113.43993,53.33795],[-113.43994,53.33071],[-113.39089,53.33064],[-113.39098,53.36692],[-113.39361,53.36692],[-113.39365,53.38127],[-113.44265,53.38134],[-113.44272,53.37403],[-113.45506,53.37412],[-113.45508,53.36681],[-113.46432,53.36681],[-113.4643,53.33805],[-113.43993,53.33795]]]}},{"type":"Feature","properties":{"t":"boundary","kind":"place","name":"Devon"},"geometry":{"type":"Polygon","coordinates":[[[-113.70507,53.35668],[-113.70533,53.36764],[-113.70793,53.37058],[-113.74827,53.37165],[-113.75706,53.36053],[-113.75676,53.33785],[-113.6838,53.33875],[-113.6838,53.34504],[-113.69132,53.34707],[-113.69594,53.35415],[-113.70312,53.35502],[-113.70507,53.35668]]]}},{"type":"Feature","properties":{"t":"boundary","kind":"place","name":"Morinville"},"geometry":{"type":"Polygon","coordinates":[[[-113.66,53.81182],[-113.65998,53.79238],[-113.64477,53.78184],[-113.64476,53.77441],[-113.61994,53.77439],[-113.61991,53.81814],[-113.65198,53.81818],[-113.66,53.81182]]]}},{"type":"Feature","properties":{"t":"boundary","kind":"place","name":"Stony Plain"},"geometry":{"type":"Polygon","coordinates":[[[-113.95937,53.55561],[-114.03875,53.55571],[-114.03873,53.54124],[-114.05114,53.54124],[-114.05115,53.51198],[-114.02614,53.51197],[-114.02616,53.50475],[-114.00171,53.50475],[-114.00171,53.49752],[-113.9715,53.49749],[-113.97144,53.50472],[-113.94704,53.50474],[-113.94693,53.54187],[-113.95993,53.54159],[-113.96139,53.55018],[-113.95937,53.55561]]]}},{"type":"Feature","properties":{"t":"place","kind":"place","km2":65.4,"name":"St. Albert"},"geometry":{"type":"Point","coordinates":[-113.64487,53.64748]}},{"type":"Feature","properties":{"t":"place","kind":"place","km2":83.5,"name":"Sherwood Park"},"geometry":{"type":"Point","coordinates":[-113.30516,53.55438]}},{"type":"Feature","properties":{"t":"place","kind":"place","km2":36.9,"name":"Spruce Grove"},"geometry":{"type":"Point","coordinates":[-113.90573,53.54571]}},{"type":"Feature","properties":{"t":"place","kind":"place","km2":57.6,"name":"Fort Saskatchewan"},"geometry":{"type":"Point","coordinates":[-113.19584,53.70965]}},{"type":"Feature","properties":{"t":"place","kind":"place","km2":42.9,"name":"Leduc"},"geometry":{"type":"Point","coordinates":[-113.54578,53.26566]}},{"type":"Feature","properties":{"t":"place","kind":"place","km2":24.2,"name":"Beaumont"},"geometry":{"type":"Point","coordinates":[-113.42475,53.35563]}},{"type":"Feature","properties":{"t":"place","kind":"place","km2":14.2,"name":"Devon"},"geometry":{"type":"Point","coordinates":[-113.72597,53.35277]}},{"type":"Feature","properties":{"t":"place","kind":"place","km2":11.2,"name":"Morinville"},"geometry":{"type":"Point","coordinates":[-113.63814,53.79788]}},{"type":"Feature","properties":{"t":"place","kind":"place","km2":36.7,"name":"Stony Plain"},"geometry":{"type":"Point","coordinates":[-113.99707,53.52842]}},{"type":"Feature","properties":{"t":"boundary","kind":"city","name":"Edmonton"},"geometry":{"type":"Polygon","coordinates":[[[-113.37955,53.5545],[-113.37774,53.56304],[-113.37222,53.56984],[-113.35699,53.56843],[-113.35691,53.57082],[-113.33232,53.57045],[-113.32041,53.57246],[-113.318,53.57074],[-113.2956,53.57068],[-113.29644,53.6185],[-113.30136,53.62222],[-113.31827,53.62648],[-113.32259,53.63167],[-113.3219,53.63451],[-113.31666,53.63733],[-113.29488,53.63976],[-113.28837,53.64233],[-113.28513,53.647],[-113.28207,53.65983],[-113.27183,53.66754],[-113.27274,53.67095],[-113.27639,53.67308],[-113.29551,53.6722],[-113.29525,53.71578],[-113.4303,53.71599],[-113.43051,53.65773],[-113.43715,53.65033],[-113.56564,53.65039],[-113.56568,53.63382],[-113.57303,53.63152],[-113.57903,53.63216],[-113.58104,53.62957],[-113.60199,53.62053],[-113.60284,53.61845],[-113.6043,53.61921],[-113.60865,53.61407],[-113.61557,53.61404],[-113.61875,53.61],[-113.6279,53.60516],[-113.63876,53.60697],[-113.63896,53.59971],[-113.67204,53.5996],[-113.69231,53.59238],[-113.71382,53.59257],[-113.71361,53.51212],[-113.68915,53.51214],[-113.68937,53.40326],[-113.64943,53.40315],[-113.64704,53.3957],[-113.64397,53.39566],[-113.64357,53.39302],[-113.64835,53.38536],[-113.65543,53.38139],[-113.66602,53.38011],[-113.68268,53.38348],[-113.68662,53.38251],[-113.69054,53.37858],[-113.69093,53.37449],[-113.68409,53.36861],[-113.68418,53.36267],[-113.6875,53.35693],[-113.69594,53.35415],[-113.69588,53.35231],[-113.69329,53.35225],[-113.69132,53.34707],[-113.6838,53.34504],[-113.6838,53.33745],[-113.55358,53.33767],[-113.51095,53.39577],[-113.46745,53.39577],[-113.46745,53.3667],[-113.45508,53.36681],[-113.45506,53.37412],[-113.44272,53.37403],[-113.44265,53.38134],[-113.39365,53.38127],[-113.39361,53.36692],[-113.34443,53.36673],[-113.34382,53.47911],[-113.34895,53.48219],[-113.35653,53.48234],[-113.35652,53.48352],[-113.34682,53.48439],[-113.34355,53.48675],[-113.34493,53.50902],[-113.3464,53.51133],[-113.3537,53.514],[-113.35685,53.51215],[-113.36016,53.5122],[-113.35534,53.51438],[-113.36356,53.51583],[-113.3699,53.51521],[-113.37506,53.51706],[-113.39404,53.51604],[-113.39403,53.54136],[-113.40159,53.54149],[-113.40149,53.55587],[-113.39236,53.55061],[-113.38446,53.55133],[-113.37955,53.5545]]]}},{"type":"Feature","properties":{"t":"boundary","kind":"region","name":"Strathcona County"},"geometry":{"type":"Polygon","coordinates":[[[-112.95121,53.77414],[-112.95123,53.89348],[-112.95837,53.89018],[-112.96725,53.88947],[-112.98682,53.88066],[-113.0077,53.87463],[-113.03548,53.86931],[-113.05368,53.86853],[-113.06162,53.86602],[-113.07103,53.85754],[-113.08437,53.83163],[-113.09342,53.82569],[-113.10628,53.82327],[-113.11205,53.82039],[-113.11294,53.80841],[-113.12526,53.791],[-113.13327,53.78453],[-113.15512,53.7744],[-113.12441,53.77437],[-113.12446,53.71572],[-113.1722,53.71581],[-113.17215,53.70129],[-113.1846,53.70131],[-113.18461,53.68197],[-113.21377,53.65757],[-113.28327,53.65755],[-113.28513,53.647],[-113.28932,53.64171],[-113.29564,53.63964],[-113.31604,53.63752],[-113.3219,53.63451],[-113.32245,53.63042],[-113.31827,53.62648],[-113.30136,53.62222],[-113.29644,53.6185],[-113.2956,53.57068],[-113.318,53.57074],[-113.32041,53.57246],[-113.33232,53.57045],[-113.35691,53.57082],[-113.35699,53.56843],[-113.37222,53.56984],[-113.37774,53.56304],[-113.3782,53.55707],[-113.3817,53.55231],[-113.38828,53.55047],[-113.39396,53.55084],[-113.40149,53.55587],[-113.40159,53.54149],[-113.39403,53.54136],[-113.39404,53.51604],[-113.37506,53.51706],[-113.3699,53.51521],[-113.36356,53.51583],[-113.35534,53.51438],[-113.36016,53.5122],[-113.3537,53.514],[-113.3464,53.51133],[-113.34493,53.50902],[-113.34355,53.48675],[-113.34682,53.48439],[-113.35652,53.48352],[-113.35653,53.48234],[-113.34895,53.48219],[-113.34382,53.47911],[-113.34443,53.36673],[-113.05,53.36667],[-113.05001,53.3595],[-113.04553,53.36244],[-113.0398,53.36287],[-113.0336,53.35983],[-113.03031,53.35444],[-113.02597,53.35253],[-113.02009,53.35406],[-113.02046,53.3519],[-113.00775,53.35927],[-113.00771,53.35812],[-113.00297,53.35742],[-113.00482,53.35367],[-112.99843,53.35433],[-112.99845,53.35543],[-112.9962,53.35313],[-112.98977,53.35525],[-112.99119,53.35927],[-112.99319,53.35868],[-112.99628,53.3609],[-112.99177,53.36075],[-112.99202,53.36198],[-112.99491,53.36174],[-112.99118,53.36402],[-112.98721,53.36278],[-112.98824,53.36407],[-112.98121,53.36471],[-112.97685,53.36229],[-112.97684,53.36683],[-112.84045,53.36683],[-112.84044,53.41074],[-112.85298,53.41072],[-112.85299,53.46164],[-112.87761,53.46159],[-112.8776,53.46882],[-112.90221,53.46876],[-112.9022,53.4832],[-112.95123,53.48305],[-112.95076,53.62856],[-112.92645,53.62876],[-112.9264,53.64337],[-112.90185,53.64335],[-112.90176,53.65781],[-112.87715,53.65782],[-112.87662,53.70173],[-112.87712,53.71616],[-112.92654,53.71611],[-112.92642,53.77379],[-112.95121,53.77414]]]}},{"type":"Feature","properties":{"t":"place","kind":"region","km2":1255.1,"name":"Strathcona County"},"geometry":{"type":"Point","coordinates":[-113.19464,53.59382]}},{"type":"Feature","properties":{"t":"boundary","kind":"region","name":"Sturgeon County"},"geometry":{"type":"Polygon","coordinates":[[[-112.84344,53.96548],[-112.84382,53.9779],[-113.34768,53.97805],[-113.3476,54.02174],[-113.57071,54.02185],[-113.57072,54.0072],[-113.66982,54.00723],[-113.66983,53.99278],[-113.78111,53.99285],[-113.78103,53.96367],[-113.80596,53.96371],[-113.80608,53.91998],[-113.86821,53.91994],[-113.86822,53.90547],[-113.97934,53.90493],[-113.9794,53.91216],[-113.99193,53.91215],[-113.9921,53.92677],[-114.05165,53.92674],[-114.05157,53.84669],[-114.02913,53.84675],[-114.02995,53.78818],[-114.02681,53.78821],[-114.0266,53.65749],[-113.91026,53.65755],[-113.9102,53.62849],[-113.83639,53.62887],[-113.83639,53.59949],[-113.7631,53.59934],[-113.76307,53.6017],[-113.75632,53.60278],[-113.75466,53.59794],[-113.75957,53.59566],[-113.76117,53.5922],[-113.7589,53.58365],[-113.75585,53.5825],[-113.73388,53.58515],[-113.71424,53.59256],[-113.69162,53.59256],[-113.6736,53.59849],[-113.65898,53.61219],[-113.65859,53.61409],[-113.66572,53.61551],[-113.67123,53.62127],[-113.67802,53.62183],[-113.68352,53.6181],[-113.69363,53.62031],[-113.69597,53.62571],[-113.70687,53.62988],[-113.70671,53.63651],[-113.70192,53.6401],[-113.71369,53.64356],[-113.71507,53.67956],[-113.67478,53.67977],[-113.67444,53.68279],[-113.66953,53.68721],[-113.61478,53.68729],[-113.61478,53.68276],[-113.61124,53.68169],[-113.59704,53.66112],[-113.59357,53.66212],[-113.59473,53.66619],[-113.57805,53.66053],[-113.56564,53.65039],[-113.43715,53.65033],[-113.43051,53.65773],[-113.4303,53.71599],[-113.29525,53.71578],[-113.29551,53.6722],[-113.29243,53.67221],[-113.29281,53.67519],[-113.28635,53.68065],[-113.26153,53.6927],[-113.24626,53.69802],[-113.21689,53.71502],[-113.20974,53.72536],[-113.20408,53.72702],[-113.19743,53.73447],[-113.17439,53.7486],[-113.1698,53.75485],[-113.16956,53.76363],[-113.16721,53.76753],[-113.13327,53.78453],[-113.12526,53.791],[-113.11327,53.80769],[-113.1118,53.82063],[-113.10524,53.82355],[-113.09342,53.82569],[-113.08238,53.8336],[-113.07129,53.85711],[-113.06492,53.8643],[-113.05368,53.86853],[-113.03548,53.86931],[-113.0077,53.87463],[-112.98682,53.88066],[-112.96725,53.88947],[-112.95837,53.89018],[-112.94663,53.89514],[-112.87905,53.93],[-112.86442,53.93947],[-112.84585,53.95915],[-112.84344,53.96548]]]}},{"type":"Feature","properties":{"t":"place","kind":"region","km2":2245.1,"name":"Sturgeon County"},"geometry":{"type":"Point","coordinates":[-113.66116,53.71109]}},{"type":"Feature","properties":{"t":"boundary","kind":"region","name":"Parkland County"},"geometry":{"type":"Polygon","coordinates":[[[-114.29519,53.40233],[-114.29972,53.40046],[-114.30125,53.39632],[-114.28028,53.38513],[-114.28065,53.37361],[-114.27655,53.37115],[-114.26097,53.37046],[-114.25433,53.37175],[-114.23814,53.36319],[-114.22306,53.35837],[-114.19983,53.35788],[-114.16235,53.35452],[-114.14369,53.34826],[-114.12674,53.34584],[-114.10395,53.34668],[-114.0887,53.3501],[-114.06714,53.35039],[-114.05893,53.34578],[-114.05704,53.33606],[-114.04623,53.32654],[-114.03329,53.32299],[-114.01441,53.32798],[-113.99816,53.32499],[-113.99181,53.32549],[-113.98352,53.32882],[-113.97879,53.33763],[-113.97051,53.34086],[-113.92322,53.33626],[-113.8956,53.34197],[-113.8758,53.34237],[-113.84679,53.35683],[-113.8375,53.35801],[-113.83272,53.36121],[-113.81389,53.35845],[-113.8046,53.35483],[-113.79429,53.35514],[-113.78934,53.3577],[-113.78409,53.3643],[-113.77888,53.3656],[-113.77347,53.35822],[-113.76401,53.357],[-113.75785,53.35974],[-113.75103,53.36977],[-113.74687,53.37191],[-113.73112,53.37034],[-113.70934,53.37104],[-113.70545,53.36815],[-113.70459,53.35576],[-113.69736,53.35414],[-113.69163,53.35474],[-113.68715,53.35728],[-113.68418,53.36267],[-113.68409,53.36861],[-113.69113,53.37507],[-113.68676,53.3824],[-113.67977,53.38351],[-113.66602,53.38011],[-113.65703,53.38099],[-113.64948,53.38428],[-113.64357,53.39302],[-113.64397,53.39566],[-113.64704,53.3957],[-113.64943,53.40315],[-113.68937,53.40326],[-113.68915,53.51214],[-113.71361,53.51212],[-113.71382,53.59257],[-113.73388,53.58515],[-113.75585,53.5825],[-113.7589,53.58365],[-113.76117,53.5922],[-113.75957,53.59566],[-113.75466,53.59794],[-113.75632,53.60278],[-113.76307,53.6017],[-113.7631,53.59934],[-113.83639,53.59949],[-113.83639,53.62887],[-113.9102,53.62849],[-113.91026,53.65755],[-114.12455,53.65744],[-114.12463,53.59922],[-114.24753,53.59928],[-114.24751,53.61391],[-114.68985,53.61377],[-114.68973,53.62833],[-114.75748,53.62837],[-114.7622,53.62565],[-114.76962,53.62624],[-114.77628,53.62111],[-114.77547,53.61355],[-114.77091,53.60837],[-114.78234,53.60496],[-114.7882,53.60522],[-114.80176,53.59892],[-114.81247,53.60243],[-114.81247,53.71541],[-114.90173,53.71544],[-114.88736,53.71505],[-114.88377,53.71313],[-114.88735,53.70914],[-114.899,53.70543],[-114.89621,53.70199],[-114.89235,53.70246],[-114.88359,53.70893],[-114.8791,53.70946],[-114.87556,53.7081],[-114.87781,53.703],[-114.86846,53.69855],[-114.86775,53.69653],[-114.87108,53.69523],[-114.87978,53.69702],[-114.88161,53.69513],[-114.87347,53.69158],[-114.8731,53.68778],[-114.87955,53.68555],[-114.88385,53.67976],[-114.89491,53.6825],[-114.90026,53.68143],[-114.90176,53.67677],[-114.89645,53.67184],[-114.89637,53.66912],[-114.89896,53.66743],[-114.91131,53.66597],[-114.91311,53.66433],[-114.91253,53.65826],[-114.92291,53.65889],[-114.93255,53.65476],[-114.94139,53.65961],[-114.94486,53.65937],[-114.94514,53.65152],[-114.94925,53.6463],[-114.94674,53.64161],[-114.95791,53.63806],[-114.95815,53.6316],[-114.95597,53.62922],[-114.96102,53.62002],[-114.96632,53.61831],[-114.96974,53.61998],[-114.97125,53.61882],[-114.96604,53.61393],[-114.96813,53.61078],[-114.98151,53.61063],[-114.98633,53.61346],[-114.98291,53.60569],[-114.98758,53.60366],[-114.99222,53.60441],[-114.99741,53.6083],[-115.00269,53.60833],[-115.00498,53.60673],[-115.00538,53.60071],[-114.998,53.59826],[-114.99732,53.59644],[-115.00372,53.5905],[-115.01079,53.58932],[-115.00293,53.58666],[-115.00222,53.58358],[-115.01093,53.58344],[-115.01278,53.58176],[-115.00368,53.58034],[-115.00161,53.57824],[-115.00783,53.57149],[-115.01588,53.57055],[-115.01798,53.56815],[-115.00747,53.56948],[-115.00349,53.56585],[-115.00582,53.56408],[-115.01559,53.56489],[-115.01871,53.56377],[-115.01304,53.56041],[-115.01298,53.55581],[-115.00756,53.55013],[-115.01082,53.54813],[-115.01985,53.54709],[-115.02199,53.54506],[-115.01582,53.54287],[-115.00315,53.54723],[-114.99796,53.54605],[-114.99924,53.54239],[-115.00991,53.54049],[-115.0114,53.53758],[-115.0091,53.53632],[-114.99839,53.53734],[-114.99653,53.53287],[-115.00175,53.52874],[-115.01385,53.52962],[-115.01642,53.52774],[-115.01295,53.52585],[-115.00336,53.525],[-114.99268,53.52068],[-114.98769,53.52099],[-114.98407,53.51849],[-114.98573,53.51702],[-114.99325,53.51749],[-114.9974,53.51369],[-115.01353,53.50754],[-115.01222,53.50569],[-115.00772,53.50575],[-115.00255,53.50983],[-114.98794,53.50495],[-114.99409,53.50186],[-114.98928,53.4951],[-114.99683,53.49543],[-115.00169,53.4929],[-114.99856,53.48657],[-114.99991,53.48385],[-115.00423,53.4824],[-115.01807,53.48349],[-115.02101,53.48192],[-115.01242,53.47878],[-114.99531,53.48078],[-114.99361,53.47735],[-115.00506,53.47292],[-115.01123,53.46343],[-115.02086,53.46202],[-115.02958,53.46264],[-115.03941,53.4515],[-115.03703,53.44713],[-115.03922,53.44564],[-115.04284,53.44775],[-115.04617,53.44133],[-115.06231,53.45271],[-115.06744,53.45356],[-115.06855,53.44902],[-115.05824,53.44669],[-115.0553,53.44385],[-115.05818,53.43631],[-115.06628,53.43815],[-115.07273,53.44545],[-115.09014,53.44368],[-115.088,53.44169],[-115.0791,53.44305],[-115.07519,53.4417],[-115.07401,53.43969],[-115.07791,53.43582],[-115.07161,53.42959],[-115.07505,53.42654],[-115.07904,53.42742],[-115.07945,53.43252],[-115.08292,53.43486],[-115.09666,53.43886],[-115.10311,53.43679],[-115.10387,53.43502],[-115.10168,53.43389],[-115.09395,53.43638],[-115.09125,53.43375],[-115.10079,53.43093],[-115.1067,53.42636],[-115.09952,53.42466],[-115.09811,53.42092],[-115.08844,53.4168],[-115.09632,53.41455],[-115.09958,53.40396],[-115.1151,53.40534],[-115.11713,53.40305],[-115.10393,53.40101],[-115.09608,53.40181],[-115.09312,53.40007],[-115.09565,53.39748],[-115.10406,53.39793],[-115.11012,53.38984],[-115.10164,53.3872],[-115.11161,53.38266],[-115.10422,53.3794],[-115.10615,53.37623],[-115.11296,53.37444],[-115.10633,53.37225],[-115.10762,53.36692],[-114.87945,53.36683],[-114.87947,53.35244],[-114.85511,53.35245],[-114.85511,53.33782],[-114.80635,53.33783],[-114.80635,53.32719],[-114.79685,53.33048],[-114.78675,53.32968],[-114.78103,53.32226],[-114.78312,53.31677],[-114.77778,53.31275],[-114.76914,53.31169],[-114.75937,53.31251],[-114.74673,53.31861],[-114.73447,53.31178],[-114.72669,53.31028],[-114.71267,53.30369],[-114.70843,53.30466],[-114.70245,53.31239],[-114.69002,53.31909],[-114.66568,53.32249],[-114.6508,53.32175],[-114.64492,53.32344],[-114.6398,53.31996],[-114.64023,53.31692],[-114.63541,53.31126],[-114.61972,53.30778],[-114.60693,53.30918],[-114.60093,53.31288],[-114.58358,53.31906],[-114.57365,53.32016],[-114.56869,53.31696],[-114.57017,53.31344],[-114.56691,53.31056],[-114.55333,53.31387],[-114.54071,53.31329],[-114.52935,53.30934],[-114.51353,53.31034],[-114.50965,53.31152],[-114.49715,53.3213],[-114.49571,53.3252],[-114.4915,53.32711],[-114.48991,53.32993],[-114.47974,53.33285],[-114.47634,53.34003],[-114.46591,53.34045],[-114.45898,53.34417],[-114.44813,53.34389],[-114.43925,53.34723],[-114.43558,53.3466],[-114.43746,53.34309],[-114.43143,53.34176],[-114.4274,53.34442],[-114.42381,53.34331],[-114.41868,53.34521],[-114.41514,53.34408],[-114.40951,53.34482],[-114.39977,53.34922],[-114.39466,53.35641],[-114.39607,53.36178],[-114.41917,53.36364],[-114.42171,53.36679],[-114.41634,53.3705],[-114.412,53.37125],[-114.40578,53.37777],[-114.40339,53.38356],[-114.39889,53.38507],[-114.3897,53.38211],[-114.37644,53.38744],[-114.37655,53.39132],[-114.38976,53.39776],[-114.38575,53.40593],[-114.38263,53.40539],[-114.3861,53.40226],[-114.38253,53.40459],[-114.3783,53.40479],[-114.36967,53.3978],[-114.35856,53.40012],[-114.35974,53.40646],[-114.37152,53.41311],[-114.37374,53.4184],[-114.37171,53.42343],[-114.3685,53.42367],[-114.3676,53.42182],[-114.36388,53.42098],[-114.35014,53.42327],[-114.33891,53.42231],[-114.32929,53.41964],[-114.32314,53.41613],[-114.32112,53.41367],[-114.3223,53.41154],[-114.31925,53.40905],[-114.31358,53.40974],[-114.30667,53.41411],[-114.302,53.41384],[-114.30099,53.41092],[-114.29818,53.40993],[-114.29205,53.4179],[-114.29587,53.4234],[-114.27601,53.42855],[-114.27469,53.42568],[-114.2889,53.41721],[-114.29519,53.40233]]]}},{"type":"Feature","properties":{"t":"place","kind":"region","km2":2755.4,"name":"Parkland County"},"geometry":{"type":"Point","coordinates":[-113.79394,53.45883]}},{"type":"Feature","properties":{"t":"boundary","kind":"region","name":"Leduc County"},"geometry":{"type":"Polygon","coordinates":[[[-114.35014,53.42327],[-114.36624,53.42128],[-114.36832,53.42361],[-114.37103,53.42362],[-114.37374,53.4184],[-114.37132,53.41282],[-114.35941,53.40607],[-114.35868,53.4],[-114.36967,53.3978],[-114.3783,53.40479],[-114.38253,53.40459],[-114.3861,53.40226],[-114.38263,53.40539],[-114.38575,53.40593],[-114.38976,53.39776],[-114.37655,53.39132],[-114.37644,53.38744],[-114.3897,53.38211],[-114.39889,53.38507],[-114.40339,53.38356],[-114.40578,53.37777],[-114.412,53.37125],[-114.41634,53.3705],[-114.42171,53.36679],[-114.41917,53.36364],[-114.39607,53.36178],[-114.39466,53.35641],[-114.39977,53.34922],[-114.40951,53.34482],[-114.41514,53.34408],[-114.41868,53.34521],[-114.42381,53.34331],[-114.4274,53.34442],[-114.43143,53.34176],[-114.43746,53.34309],[-114.43558,53.3466],[-114.43925,53.34723],[-114.44813,53.34389],[-114.45898,53.34417],[-114.46591,53.34045],[-114.47634,53.34003],[-114.47974,53.33285],[-114.48991,53.32993],[-114.4915,53.32711],[-114.49571,53.3252],[-114.49715,53.3213],[-114.50965,53.31152],[-114.51353,53.31034],[-114.53017,53.30942],[-114.53949,53.31305],[-114.54833,53.31377],[-114.55602,53.31366],[-114.56216,53.31174],[-114.56245,53.25056],[-114.53793,53.25058],[-114.53788,53.22151],[-114.48933,53.22144],[-114.48929,53.19232],[-114.44059,53.19294],[-114.44063,53.14147],[-114.40376,53.14147],[-114.40378,53.13406],[-114.36745,53.13404],[-114.36758,53.06135],[-114.19699,53.06123],[-114.19696,53.054],[-114.14844,53.05392],[-114.14845,53.0465],[-114.03837,53.04682],[-114.03843,53.10497],[-114.00199,53.10501],[-114.00199,53.13409],[-113.94676,53.13316],[-113.93045,53.11925],[-113.93017,53.11694],[-113.923,53.11292],[-113.9109,53.1097],[-113.89261,53.10861],[-113.87316,53.1115],[-113.87099,53.11031],[-113.85453,53.11143],[-113.83494,53.10667],[-113.83229,53.10717],[-113.82984,53.10501],[-113.56169,53.10504],[-113.56157,53.11972],[-113.17187,53.11976],[-113.17189,53.17069],[-113.18393,53.17069],[-113.18395,53.19234],[-113.18393,53.21419],[-113.17188,53.2142],[-113.17189,53.23607],[-113.04998,53.23608],[-113.05003,53.29401],[-113.00115,53.29426],[-113.0012,53.33779],[-113.02561,53.33771],[-113.02564,53.35227],[-113.05003,53.35221],[-113.05,53.36667],[-113.39098,53.36674],[-113.39361,53.36692],[-113.39365,53.38127],[-113.44265,53.38134],[-113.44272,53.37403],[-113.45506,53.37412],[-113.45508,53.36681],[-113.46745,53.3667],[-113.46745,53.39577],[-113.51095,53.39577],[-113.55358,53.33767],[-113.6838,53.33745],[-113.6838,53.34504],[-113.69132,53.34707],[-113.69594,53.35415],[-113.70459,53.35576],[-113.70708,53.37015],[-113.71094,53.37135],[-113.72995,53.37033],[-113.74687,53.37191],[-113.75103,53.36977],[-113.75785,53.35974],[-113.76401,53.357],[-113.77347,53.35822],[-113.77888,53.3656],[-113.78409,53.3643],[-113.78934,53.3577],[-113.79429,53.35514],[-113.8046,53.35483],[-113.81389,53.35845],[-113.83272,53.36121],[-113.8375,53.35801],[-113.84679,53.35683],[-113.8758,53.34237],[-113.8956,53.34197],[-113.92322,53.33626],[-113.97051,53.34086],[-113.97879,53.33763],[-113.98352,53.32882],[-113.99181,53.32549],[-113.99816,53.32499],[-114.01441,53.32798],[-114.03329,53.32299],[-114.04623,53.32654],[-114.05704,53.33606],[-114.05893,53.34578],[-114.06714,53.35039],[-114.0887,53.3501],[-114.10395,53.34668],[-114.12674,53.34584],[-114.14369,53.34826],[-114.16235,53.35452],[-114.19983,53.35788],[-114.2205,53.35789],[-114.23814,53.36319],[-114.25433,53.37175],[-114.26219,53.37044],[-114.27847,53.37193],[-114.28069,53.37385],[-114.28028,53.38513],[-114.30127,53.39662],[-114.29972,53.40046],[-114.2937,53.40402],[-114.2889,53.41721],[-114.27469,53.42568],[-114.27577,53.42849],[-114.29587,53.4234],[-114.29205,53.4179],[-114.29818,53.40993],[-114.30099,53.41092],[-114.302,53.41384],[-114.30667,53.41411],[-114.31358,53.40974],[-114.3188,53.40894],[-114.3223,53.41154],[-114.32173,53.41502],[-114.33244,53.42069],[-114.35014,53.42327]]]}},{"type":"Feature","properties":{"t":"place","kind":"region","km2":2683.5,"name":"Leduc County"},"geometry":{"type":"Point","coordinates":[-113.50494,53.28853]}},{"type":"Feature","properties":{"t":"boundary","kind":"zone","name":"Industrial Heartland"},"geometry":{"type":"MultiPolygon","coordinates":[[[[-113.40084,53.63766],[-113.42714,53.64391],[-113.43712,53.6477],[-113.43051,53.65773],[-113.4303,53.71599],[-113.29525,53.71578],[-113.29533,53.6991],[-113.30705,53.69322],[-113.35124,53.66451],[-113.38569,53.65112],[-113.39282,53.64037],[-113.40084,53.63766]]],[[[-112.75294,53.90527],[-112.75288,53.77418],[-112.78998,53.77417],[-112.78988,53.76713],[-112.80227,53.76708],[-112.80254,53.77417],[-112.82744,53.77417],[-112.82744,53.77246],[-112.80228,53.76341],[-112.8023,53.75984],[-112.92638,53.75971],[-112.92642,53.77379],[-112.93039,53.77414],[-112.95121,53.77414],[-112.95118,53.76701],[-113.03759,53.76708],[-113.03757,53.75984],[-113.05007,53.7598],[-113.05005,53.75255],[-113.07491,53.75267],[-113.0749,53.74523],[-113.08712,53.7452],[-113.08715,53.73797],[-113.09965,53.73794],[-113.09976,53.73069],[-113.12443,53.73066],[-113.12446,53.71576],[-113.1725,53.71581],[-113.17246,53.70129],[-113.1846,53.70131],[-113.1846,53.69408],[-113.19701,53.69409],[-113.20508,53.70133],[-113.19685,53.70771],[-113.21131,53.72315],[-113.20052,53.72976],[-113.19744,53.73447],[-113.18606,53.74258],[-113.17356,53.74937],[-113.1698,53.75485],[-113.1677,53.76704],[-113.1709,53.76822],[-113.16997,53.77094],[-113.1813,53.76962],[-113.18266,53.7719],[-113.18728,53.77061],[-113.19145,53.77525],[-113.19636,53.77316],[-113.19579,53.77489],[-113.19836,53.77602],[-113.19836,53.77436],[-113.20254,53.77449],[-113.20975,53.77782],[-113.20988,53.77976],[-113.21371,53.77994],[-113.21122,53.7828],[-113.21535,53.78227],[-113.21577,53.78448],[-113.22089,53.78476],[-113.22534,53.78861],[-113.22836,53.78864],[-113.23093,53.78958],[-113.22921,53.78937],[-113.22861,53.79155],[-113.23139,53.7908],[-113.23101,53.79227],[-113.23465,53.79183],[-113.23523,53.79359],[-113.23871,53.79444],[-113.23471,53.79464],[-113.2385,53.79731],[-113.23741,53.79933],[-113.24309,53.80135],[-113.24277,53.80393],[-113.24864,53.80508],[-113.2487,53.90541],[-112.75294,53.90527]]]]}},{"type":"Feature","properties":{"t":"place","kind":"zone","km2":591.1,"name":"Industrial Heartland"},"geometry":{"type":"Point","coordinates":[-113.12721,53.7603]}},{"type":"Feature","properties":{"t":"place","kind":"econ","name":"Nisku"},"geometry":{"type":"Point","coordinates":[-113.51605,53.34659]}},{"type":"Feature","properties":{"t":"place","kind":"econ","name":"Edmonton Int'l Airport"},"geometry":{"type":"Point","coordinates":[-113.58066,53.30942]}}]}